<?xml version="1.0" encoding="UTF-8"?>
<gpx creator="Komoot Extension" version="1.1"
  xsi:schemaLocation="http://www.topografix.com/GPX/1/1 http://www.topografix.com/GPX/11.xsd"
  xmlns:ns3="http://www.garmin.com/xmlschemas/TrackPointExtension/v1"
  xmlns="http://www.topografix.com/GPX/1/1"
  xmlns:xsi="http://www.w3.org/2001/XMLSchema-instance" xmlns:ns2="http://www.garmin.com/xmlschemas/GpxExtensions/v3">
  <trk>
    <name>2427922323 - Day 3 - Hike to View of Langstrath Valley and Waterfalls </name>
    <type>cycling</type>
    <trkseg>
    <trkpt lat="54.445538" lon="-3.102863">
        <ele>102</ele>
      </trkpt><trkpt lat="54.445532" lon="-3.102989">
        <ele>102.3</ele>
      </trkpt><trkpt lat="54.445571" lon="-3.103573">
        <ele>103.6</ele>
      </trkpt><trkpt lat="54.445547" lon="-3.103694">
        <ele>103.9</ele>
      </trkpt><trkpt lat="54.445624" lon="-3.103818">
        <ele>104.3</ele>
      </trkpt><trkpt lat="54.445791" lon="-3.103737">
        <ele>105</ele>
      </trkpt><trkpt lat="54.445837" lon="-3.103653">
        <ele>105.2</ele>
      </trkpt><trkpt lat="54.445874" lon="-3.10342">
        <ele>105.7</ele>
      </trkpt><trkpt lat="54.445979" lon="-3.103212">
        <ele>106.2</ele>
      </trkpt><trkpt lat="54.446075" lon="-3.103062">
        <ele>106.6</ele>
      </trkpt><trkpt lat="54.446144" lon="-3.10304">
        <ele>106.8</ele>
      </trkpt><trkpt lat="54.446182" lon="-3.102969">
        <ele>107</ele>
      </trkpt><trkpt lat="54.446224" lon="-3.102741">
        <ele>107.3</ele>
      </trkpt><trkpt lat="54.446236" lon="-3.102105">
        <ele>107.6</ele>
      </trkpt><trkpt lat="54.446333" lon="-3.100915">
        <ele>106.7</ele>
      </trkpt><trkpt lat="54.446503" lon="-3.099797">
        <ele>105.7</ele>
      </trkpt><trkpt lat="54.446587" lon="-3.099467">
        <ele>105.3</ele>
      </trkpt><trkpt lat="54.446643" lon="-3.09906">
        <ele>105</ele>
      </trkpt><trkpt lat="54.44663" lon="-3.098724">
        <ele>104.8</ele>
      </trkpt><trkpt lat="54.446674" lon="-3.09832">
        <ele>104.5</ele>
      </trkpt><trkpt lat="54.446773" lon="-3.098078">
        <ele>104.4</ele>
      </trkpt><trkpt lat="54.446895" lon="-3.097649">
        <ele>104.4</ele>
      </trkpt><trkpt lat="54.447085" lon="-3.096876">
        <ele>105.6</ele>
      </trkpt><trkpt lat="54.447367" lon="-3.096411">
        <ele>107.4</ele>
      </trkpt><trkpt lat="54.447473" lon="-3.096142">
        <ele>108.6</ele>
      </trkpt><trkpt lat="54.447783" lon="-3.095978">
        <ele>111</ele>
      </trkpt><trkpt lat="54.447845" lon="-3.095808">
        <ele>112</ele>
      </trkpt><trkpt lat="54.447901" lon="-3.095771">
        <ele>112.5</ele>
      </trkpt><trkpt lat="54.448294" lon="-3.094707">
        <ele>120</ele>
      </trkpt><trkpt lat="54.44841" lon="-3.094201">
        <ele>123.8</ele>
      </trkpt><trkpt lat="54.448483" lon="-3.09408">
        <ele>125.2</ele>
      </trkpt><trkpt lat="54.448565" lon="-3.094086">
        <ele>126.3</ele>
      </trkpt><trkpt lat="54.448637" lon="-3.094034">
        <ele>127.4</ele>
      </trkpt><trkpt lat="54.448678" lon="-3.093915">
        <ele>128.5</ele>
      </trkpt><trkpt lat="54.448743" lon="-3.093766">
        <ele>130.2</ele>
      </trkpt><trkpt lat="54.448769" lon="-3.093389">
        <ele>133.7</ele>
      </trkpt><trkpt lat="54.449008" lon="-3.093651">
        <ele>139</ele>
      </trkpt><trkpt lat="54.449193" lon="-3.093714">
        <ele>143</ele>
      </trkpt><trkpt lat="54.449245" lon="-3.09385">
        <ele>145.1</ele>
      </trkpt><trkpt lat="54.449549" lon="-3.094105">
        <ele>153.1</ele>
      </trkpt><trkpt lat="54.449559" lon="-3.094115">
        <ele>153.3</ele>
      </trkpt><trkpt lat="54.449559" lon="-3.094115">
        <ele>153.3</ele>
      </trkpt><trkpt lat="54.449574" lon="-3.094196">
        <ele>154.5</ele>
      </trkpt><trkpt lat="54.449812" lon="-3.094478">
        <ele>162</ele>
      </trkpt><trkpt lat="54.449947" lon="-3.094595">
        <ele>166.1</ele>
      </trkpt><trkpt lat="54.450217" lon="-3.094448">
        <ele>173.8</ele>
      </trkpt><trkpt lat="54.450402" lon="-3.0944">
        <ele>178.8</ele>
      </trkpt><trkpt lat="54.450445" lon="-3.094341">
        <ele>180.3</ele>
      </trkpt><trkpt lat="54.45055" lon="-3.094283">
        <ele>183.2</ele>
      </trkpt><trkpt lat="54.450617" lon="-3.094288">
        <ele>184.9</ele>
      </trkpt><trkpt lat="54.450743" lon="-3.094204">
        <ele>188.6</ele>
      </trkpt><trkpt lat="54.45078" lon="-3.094227">
        <ele>189.6</ele>
      </trkpt><trkpt lat="54.450893" lon="-3.094274">
        <ele>192.6</ele>
      </trkpt><trkpt lat="54.451239" lon="-3.094588">
        <ele>202</ele>
      </trkpt><trkpt lat="54.451468" lon="-3.094632">
        <ele>207.3</ele>
      </trkpt><trkpt lat="54.451615" lon="-3.094724">
        <ele>211.1</ele>
      </trkpt><trkpt lat="54.451754" lon="-3.094819">
        <ele>215</ele>
      </trkpt><trkpt lat="54.451907" lon="-3.094857">
        <ele>218.9</ele>
      </trkpt><trkpt lat="54.452072" lon="-3.094998">
        <ele>223.3</ele>
      </trkpt><trkpt lat="54.452322" lon="-3.095296">
        <ele>230.4</ele>
      </trkpt><trkpt lat="54.452416" lon="-3.095516">
        <ele>234.3</ele>
      </trkpt><trkpt lat="54.452655" lon="-3.095854">
        <ele>242.4</ele>
      </trkpt><trkpt lat="54.452804" lon="-3.09619">
        <ele>249.3</ele>
      </trkpt><trkpt lat="54.452909" lon="-3.096314">
        <ele>253.2</ele>
      </trkpt><trkpt lat="54.453161" lon="-3.096458">
        <ele>261.8</ele>
      </trkpt><trkpt lat="54.453198" lon="-3.096523">
        <ele>263.6</ele>
      </trkpt><trkpt lat="54.453229" lon="-3.096696">
        <ele>267.2</ele>
      </trkpt><trkpt lat="54.453329" lon="-3.096818">
        <ele>271.5</ele>
      </trkpt><trkpt lat="54.453423" lon="-3.097143">
        <ele>278.8</ele>
      </trkpt><trkpt lat="54.4535" lon="-3.097303">
        <ele>283</ele>
      </trkpt><trkpt lat="54.453683" lon="-3.097498">
        <ele>290.6</ele>
      </trkpt><trkpt lat="54.453793" lon="-3.097748">
        <ele>297.1</ele>
      </trkpt><trkpt lat="54.453818" lon="-3.09793">
        <ele>301</ele>
      </trkpt><trkpt lat="54.454003" lon="-3.098204">
        <ele>309.4</ele>
      </trkpt><trkpt lat="54.454062" lon="-3.098346">
        <ele>312.9</ele>
      </trkpt><trkpt lat="54.454207" lon="-3.098515">
        <ele>318.8</ele>
      </trkpt><trkpt lat="54.454295" lon="-3.098665">
        <ele>322.9</ele>
      </trkpt><trkpt lat="54.454482" lon="-3.098699">
        <ele>329</ele>
      </trkpt><trkpt lat="54.454536" lon="-3.098722">
        <ele>330.8</ele>
      </trkpt><trkpt lat="54.454595" lon="-3.098927">
        <ele>334.9</ele>
      </trkpt><trkpt lat="54.454675" lon="-3.098984">
        <ele>337.5</ele>
      </trkpt><trkpt lat="54.454865" lon="-3.099161">
        <ele>344.1</ele>
      </trkpt><trkpt lat="54.454937" lon="-3.099271">
        <ele>346.9</ele>
      </trkpt><trkpt lat="54.455034" lon="-3.099311">
        <ele>350</ele>
      </trkpt><trkpt lat="54.455132" lon="-3.099216">
        <ele>353.3</ele>
      </trkpt><trkpt lat="54.455214" lon="-3.099288">
        <ele>356</ele>
      </trkpt><trkpt lat="54.455494" lon="-3.099282">
        <ele>364.4</ele>
      </trkpt><trkpt lat="54.45559" lon="-3.099182">
        <ele>368</ele>
      </trkpt><trkpt lat="54.455689" lon="-3.099212">
        <ele>371.1</ele>
      </trkpt><trkpt lat="54.455952" lon="-3.099137">
        <ele>380.2</ele>
      </trkpt><trkpt lat="54.45606" lon="-3.099223">
        <ele>384.6</ele>
      </trkpt><trkpt lat="54.456213" lon="-3.099152">
        <ele>390.4</ele>
      </trkpt><trkpt lat="54.456533" lon="-3.098931">
        <ele>403.4</ele>
      </trkpt><trkpt lat="54.456737" lon="-3.098933">
        <ele>411.1</ele>
      </trkpt><trkpt lat="54.456966" lon="-3.099023">
        <ele>419.7</ele>
      </trkpt><trkpt lat="54.457099" lon="-3.099142">
        <ele>425.1</ele>
      </trkpt><trkpt lat="54.457149" lon="-3.099248">
        <ele>428</ele>
      </trkpt><trkpt lat="54.457305" lon="-3.099153">
        <ele>433.4</ele>
      </trkpt><trkpt lat="54.457356" lon="-3.099175">
        <ele>435</ele>
      </trkpt><trkpt lat="54.45741" lon="-3.099229">
        <ele>437</ele>
      </trkpt><trkpt lat="54.457535" lon="-3.099557">
        <ele>444</ele>
      </trkpt><trkpt lat="54.457609" lon="-3.099655">
        <ele>446.7</ele>
      </trkpt><trkpt lat="54.457751" lon="-3.099694">
        <ele>450.4</ele>
      </trkpt><trkpt lat="54.457923" lon="-3.099843">
        <ele>454.9</ele>
      </trkpt><trkpt lat="54.458027" lon="-3.099993">
        <ele>457.7</ele>
      </trkpt><trkpt lat="54.458163" lon="-3.099718">
        <ele>461.1</ele>
      </trkpt><trkpt lat="54.458275" lon="-3.099827">
        <ele>462.8</ele>
      </trkpt><trkpt lat="54.458337" lon="-3.099837">
        <ele>463.5</ele>
      </trkpt><trkpt lat="54.458577" lon="-3.099628">
        <ele>465.9</ele>
      </trkpt><trkpt lat="54.458724" lon="-3.099634">
        <ele>466.7</ele>
      </trkpt><trkpt lat="54.458881" lon="-3.099547">
        <ele>467.2</ele>
      </trkpt><trkpt lat="54.459046" lon="-3.099519">
        <ele>467.4</ele>
      </trkpt><trkpt lat="54.458881" lon="-3.099547">
        <ele>467.4</ele>
      </trkpt><trkpt lat="54.458724" lon="-3.099634">
        <ele>467.4</ele>
      </trkpt><trkpt lat="54.458577" lon="-3.099628">
        <ele>467.3</ele>
      </trkpt><trkpt lat="54.458337" lon="-3.099837">
        <ele>467.2</ele>
      </trkpt><trkpt lat="54.458275" lon="-3.099827">
        <ele>467.1</ele>
      </trkpt><trkpt lat="54.458163" lon="-3.099718">
        <ele>466.9</ele>
      </trkpt><trkpt lat="54.458027" lon="-3.099993">
        <ele>466.1</ele>
      </trkpt><trkpt lat="54.458033" lon="-3.100001">
        <ele>466.1</ele>
      </trkpt><trkpt lat="54.457649" lon="-3.100688">
        <ele>463.9</ele>
      </trkpt><trkpt lat="54.457579" lon="-3.100777">
        <ele>463.7</ele>
      </trkpt><trkpt lat="54.457587" lon="-3.100867">
        <ele>463.5</ele>
      </trkpt><trkpt lat="54.457095" lon="-3.100779">
        <ele>462.9</ele>
      </trkpt><trkpt lat="54.456946" lon="-3.100821">
        <ele>462.9</ele>
      </trkpt><trkpt lat="54.456802" lon="-3.101004">
        <ele>463</ele>
      </trkpt><trkpt lat="54.456434" lon="-3.101583">
        <ele>464.2</ele>
      </trkpt><trkpt lat="54.456331" lon="-3.101578">
        <ele>464.7</ele>
      </trkpt><trkpt lat="54.456219" lon="-3.101653">
        <ele>465.5</ele>
      </trkpt><trkpt lat="54.456079" lon="-3.101975">
        <ele>467.5</ele>
      </trkpt><trkpt lat="54.456075" lon="-3.102114">
        <ele>468.2</ele>
      </trkpt><trkpt lat="54.455854" lon="-3.102227">
        <ele>470.5</ele>
      </trkpt><trkpt lat="54.455814" lon="-3.102323">
        <ele>471.1</ele>
      </trkpt><trkpt lat="54.455804" lon="-3.102726">
        <ele>473.2</ele>
      </trkpt><trkpt lat="54.455602" lon="-3.102983">
        <ele>475.4</ele>
      </trkpt><trkpt lat="54.455424" lon="-3.103064">
        <ele>476.8</ele>
      </trkpt><trkpt lat="54.455112" lon="-3.103055">
        <ele>478.7</ele>
      </trkpt><trkpt lat="54.454884" lon="-3.103171">
        <ele>479.8</ele>
      </trkpt><trkpt lat="54.454735" lon="-3.1033">
        <ele>480.4</ele>
      </trkpt><trkpt lat="54.454491" lon="-3.10338">
        <ele>481.3</ele>
      </trkpt><trkpt lat="54.454345" lon="-3.103681">
        <ele>482.3</ele>
      </trkpt><trkpt lat="54.45426" lon="-3.103992">
        <ele>483.4</ele>
      </trkpt><trkpt lat="54.454148" lon="-3.104535">
        <ele>486</ele>
      </trkpt><trkpt lat="54.454118" lon="-3.104833">
        <ele>488</ele>
      </trkpt><trkpt lat="54.4542" lon="-3.105029">
        <ele>490</ele>
      </trkpt><trkpt lat="54.454255" lon="-3.105259">
        <ele>492.3</ele>
      </trkpt><trkpt lat="54.454313" lon="-3.105651">
        <ele>496.8</ele>
      </trkpt><trkpt lat="54.454285" lon="-3.105914">
        <ele>500.2</ele>
      </trkpt><trkpt lat="54.454304" lon="-3.106015">
        <ele>501.7</ele>
      </trkpt><trkpt lat="54.454288" lon="-3.106419">
        <ele>507.8</ele>
      </trkpt><trkpt lat="54.45434" lon="-3.106635">
        <ele>511.7</ele>
      </trkpt><trkpt lat="54.454365" lon="-3.107006">
        <ele>518.3</ele>
      </trkpt><trkpt lat="54.454354" lon="-3.107087">
        <ele>519.8</ele>
      </trkpt><trkpt lat="54.454477" lon="-3.107382">
        <ele>526.4</ele>
      </trkpt><trkpt lat="54.454544" lon="-3.107666">
        <ele>532.2</ele>
      </trkpt><trkpt lat="54.45462" lon="-3.107749">
        <ele>535.2</ele>
      </trkpt><trkpt lat="54.454638" lon="-3.107853">
        <ele>537.4</ele>
      </trkpt><trkpt lat="54.454699" lon="-3.107887">
        <ele>539.6</ele>
      </trkpt><trkpt lat="54.454775" lon="-3.108009">
        <ele>543.2</ele>
      </trkpt><trkpt lat="54.454806" lon="-3.10814">
        <ele>546</ele>
      </trkpt><trkpt lat="54.454824" lon="-3.108338">
        <ele>550.1</ele>
      </trkpt><trkpt lat="54.454839" lon="-3.10851">
        <ele>553.6</ele>
      </trkpt><trkpt lat="54.45483" lon="-3.108689">
        <ele>557.2</ele>
      </trkpt><trkpt lat="54.455004" lon="-3.109072">
        <ele>566.5</ele>
      </trkpt><trkpt lat="54.455188" lon="-3.109559">
        <ele>576.7</ele>
      </trkpt><trkpt lat="54.455188" lon="-3.109606">
        <ele>577.5</ele>
      </trkpt><trkpt lat="54.455319" lon="-3.109895">
        <ele>583.1</ele>
      </trkpt><trkpt lat="54.455373" lon="-3.110089">
        <ele>586.2</ele>
      </trkpt><trkpt lat="54.455402" lon="-3.11038">
        <ele>590.1</ele>
      </trkpt><trkpt lat="54.455492" lon="-3.110709">
        <ele>594.5</ele>
      </trkpt><trkpt lat="54.455477" lon="-3.110829">
        <ele>595.9</ele>
      </trkpt><trkpt lat="54.455541" lon="-3.111122">
        <ele>599.3</ele>
      </trkpt><trkpt lat="54.455569" lon="-3.111583">
        <ele>603.7</ele>
      </trkpt><trkpt lat="54.455661" lon="-3.111985">
        <ele>607.4</ele>
      </trkpt><trkpt lat="54.455632" lon="-3.11228">
        <ele>609.8</ele>
      </trkpt><trkpt lat="54.455728" lon="-3.112586">
        <ele>612.5</ele>
      </trkpt><trkpt lat="54.455902" lon="-3.112933">
        <ele>616.2</ele>
      </trkpt><trkpt lat="54.455915" lon="-3.113127">
        <ele>617.9</ele>
      </trkpt><trkpt lat="54.455976" lon="-3.113229">
        <ele>619.3</ele>
      </trkpt><trkpt lat="54.456072" lon="-3.113252">
        <ele>621.1</ele>
      </trkpt><trkpt lat="54.456112" lon="-3.113311">
        <ele>622.1</ele>
      </trkpt><trkpt lat="54.456328" lon="-3.113194">
        <ele>626.7</ele>
      </trkpt><trkpt lat="54.456474" lon="-3.113181">
        <ele>629.8</ele>
      </trkpt><trkpt lat="54.456715" lon="-3.113229">
        <ele>635.1</ele>
      </trkpt><trkpt lat="54.456766" lon="-3.113179">
        <ele>636.5</ele>
      </trkpt><trkpt lat="54.456847" lon="-3.113177">
        <ele>638.3</ele>
      </trkpt><trkpt lat="54.456868" lon="-3.112974">
        <ele>640.9</ele>
      </trkpt><trkpt lat="54.456871" lon="-3.11249">
        <ele>647.1</ele>
      </trkpt><trkpt lat="54.456853" lon="-3.112401">
        <ele>648.2</ele>
      </trkpt><trkpt lat="54.456866" lon="-3.111986">
        <ele>653.4</ele>
      </trkpt><trkpt lat="54.45668" lon="-3.111646">
        <ele>659</ele>
      </trkpt><trkpt lat="54.45681" lon="-3.111534">
        <ele>661.9</ele>
      </trkpt><trkpt lat="54.456877" lon="-3.111379">
        <ele>664</ele>
      </trkpt><trkpt lat="54.456799" lon="-3.111209">
        <ele>666.3</ele>
      </trkpt><trkpt lat="54.456704" lon="-3.111098">
        <ele>668.2</ele>
      </trkpt><trkpt lat="54.456676" lon="-3.11095">
        <ele>669.4</ele>
      </trkpt><trkpt lat="54.45657" lon="-3.110771">
        <ele>671.2</ele>
      </trkpt><trkpt lat="54.456586" lon="-3.11062">
        <ele>672.2</ele>
      </trkpt><trkpt lat="54.456515" lon="-3.110393">
        <ele>673.4</ele>
      </trkpt><trkpt lat="54.456478" lon="-3.110158">
        <ele>674.2</ele>
      </trkpt><trkpt lat="54.456497" lon="-3.109731">
        <ele>675.1</ele>
      </trkpt><trkpt lat="54.456547" lon="-3.10947">
        <ele>675.4</ele>
      </trkpt><trkpt lat="54.456628" lon="-3.109449">
        <ele>675.6</ele>
      </trkpt><trkpt lat="54.456547" lon="-3.10947">
        <ele>675.4</ele>
      </trkpt><trkpt lat="54.456497" lon="-3.109731">
        <ele>675.1</ele>
      </trkpt><trkpt lat="54.456478" lon="-3.110158">
        <ele>674.2</ele>
      </trkpt><trkpt lat="54.456515" lon="-3.110393">
        <ele>673.4</ele>
      </trkpt><trkpt lat="54.456586" lon="-3.11062">
        <ele>672.2</ele>
      </trkpt><trkpt lat="54.45657" lon="-3.110771">
        <ele>671.2</ele>
      </trkpt><trkpt lat="54.456676" lon="-3.11095">
        <ele>669.4</ele>
      </trkpt><trkpt lat="54.456704" lon="-3.111098">
        <ele>668.2</ele>
      </trkpt><trkpt lat="54.456799" lon="-3.111209">
        <ele>666.3</ele>
      </trkpt><trkpt lat="54.456877" lon="-3.111379">
        <ele>664</ele>
      </trkpt><trkpt lat="54.45681" lon="-3.111534">
        <ele>661.9</ele>
      </trkpt><trkpt lat="54.45668" lon="-3.111646">
        <ele>659</ele>
      </trkpt><trkpt lat="54.456866" lon="-3.111986">
        <ele>653.4</ele>
      </trkpt><trkpt lat="54.456853" lon="-3.112401">
        <ele>648.2</ele>
      </trkpt><trkpt lat="54.456871" lon="-3.11249">
        <ele>647.1</ele>
      </trkpt><trkpt lat="54.456868" lon="-3.112974">
        <ele>641.1</ele>
      </trkpt><trkpt lat="54.456847" lon="-3.113177">
        <ele>638.5</ele>
      </trkpt><trkpt lat="54.456766" lon="-3.113179">
        <ele>636.9</ele>
      </trkpt><trkpt lat="54.456715" lon="-3.113229">
        <ele>635.7</ele>
      </trkpt><trkpt lat="54.456474" lon="-3.113181">
        <ele>631.4</ele>
      </trkpt><trkpt lat="54.456328" lon="-3.113194">
        <ele>629.1</ele>
      </trkpt><trkpt lat="54.456112" lon="-3.113311">
        <ele>626.5</ele>
      </trkpt><trkpt lat="54.455813" lon="-3.113316">
        <ele>624.5</ele>
      </trkpt><trkpt lat="54.455713" lon="-3.113361">
        <ele>624.3</ele>
      </trkpt><trkpt lat="54.455646" lon="-3.113253">
        <ele>624.2</ele>
      </trkpt><trkpt lat="54.455567" lon="-3.113203">
        <ele>624.1</ele>
      </trkpt><trkpt lat="54.455509" lon="-3.113214">
        <ele>624.1</ele>
      </trkpt><trkpt lat="54.455294" lon="-3.113039">
        <ele>624.2</ele>
      </trkpt><trkpt lat="54.455148" lon="-3.113018">
        <ele>624.5</ele>
      </trkpt><trkpt lat="54.455039" lon="-3.113102">
        <ele>624.9</ele>
      </trkpt><trkpt lat="54.454887" lon="-3.113092">
        <ele>625.7</ele>
      </trkpt><trkpt lat="54.454726" lon="-3.113342">
        <ele>627</ele>
      </trkpt><trkpt lat="54.454627" lon="-3.113369">
        <ele>627.8</ele>
      </trkpt><trkpt lat="54.454531" lon="-3.113342">
        <ele>628.6</ele>
      </trkpt><trkpt lat="54.454419" lon="-3.113606">
        <ele>630</ele>
      </trkpt><trkpt lat="54.454334" lon="-3.114142">
        <ele>631.3</ele>
      </trkpt><trkpt lat="54.454347" lon="-3.114274">
        <ele>631.4</ele>
      </trkpt><trkpt lat="54.454426" lon="-3.114547">
        <ele>631.5</ele>
      </trkpt><trkpt lat="54.454498" lon="-3.114696">
        <ele>631.6</ele>
      </trkpt><trkpt lat="54.454532" lon="-3.114867">
        <ele>631.6</ele>
      </trkpt><trkpt lat="54.45459" lon="-3.115214">
        <ele>631.7</ele>
      </trkpt><trkpt lat="54.454574" lon="-3.115274">
        <ele>631.7</ele>
      </trkpt><trkpt lat="54.45442" lon="-3.115325">
        <ele>631.9</ele>
      </trkpt><trkpt lat="54.454179" lon="-3.115482">
        <ele>632.4</ele>
      </trkpt><trkpt lat="54.454167" lon="-3.115524">
        <ele>632.5</ele>
      </trkpt><trkpt lat="54.454201" lon="-3.115583">
        <ele>632.5</ele>
      </trkpt><trkpt lat="54.454201" lon="-3.115672">
        <ele>632.6</ele>
      </trkpt><trkpt lat="54.45426" lon="-3.115759">
        <ele>632.7</ele>
      </trkpt><trkpt lat="54.454342" lon="-3.115734">
        <ele>632.9</ele>
      </trkpt><trkpt lat="54.454374" lon="-3.115893">
        <ele>633</ele>
      </trkpt><trkpt lat="54.454473" lon="-3.116037">
        <ele>633.1</ele>
      </trkpt><trkpt lat="54.454624" lon="-3.116256">
        <ele>633.3</ele>
      </trkpt><trkpt lat="54.454656" lon="-3.11642">
        <ele>633.5</ele>
      </trkpt><trkpt lat="54.454737" lon="-3.116483">
        <ele>633.9</ele>
      </trkpt><trkpt lat="54.454836" lon="-3.116767">
        <ele>635</ele>
      </trkpt><trkpt lat="54.454951" lon="-3.116847">
        <ele>635.8</ele>
      </trkpt><trkpt lat="54.455067" lon="-3.117165">
        <ele>637.5</ele>
      </trkpt><trkpt lat="54.455136" lon="-3.117165">
        <ele>638</ele>
      </trkpt><trkpt lat="54.455228" lon="-3.117386">
        <ele>639.4</ele>
      </trkpt><trkpt lat="54.455309" lon="-3.117582">
        <ele>640.6</ele>
      </trkpt><trkpt lat="54.455413" lon="-3.117562">
        <ele>641.6</ele>
      </trkpt><trkpt lat="54.455494" lon="-3.117622">
        <ele>642.3</ele>
      </trkpt><trkpt lat="54.455586" lon="-3.11778">
        <ele>643.3</ele>
      </trkpt><trkpt lat="54.455586" lon="-3.11786">
        <ele>643.6</ele>
      </trkpt><trkpt lat="54.455875" lon="-3.118178">
        <ele>646</ele>
      </trkpt><trkpt lat="54.456014" lon="-3.118436">
        <ele>647.4</ele>
      </trkpt><trkpt lat="54.456141" lon="-3.118853">
        <ele>649.2</ele>
      </trkpt><trkpt lat="54.456152" lon="-3.118972">
        <ele>649.7</ele>
      </trkpt><trkpt lat="54.45621" lon="-3.119052">
        <ele>650.1</ele>
      </trkpt><trkpt lat="54.456325" lon="-3.119608">
        <ele>651.8</ele>
      </trkpt><trkpt lat="54.456539" lon="-3.119903">
        <ele>653</ele>
      </trkpt><trkpt lat="54.456579" lon="-3.120045">
        <ele>653.4</ele>
      </trkpt><trkpt lat="54.456545" lon="-3.120165">
        <ele>653.7</ele>
      </trkpt><trkpt lat="54.456727" lon="-3.120366">
        <ele>654.7</ele>
      </trkpt><trkpt lat="54.456942" lon="-3.121121">
        <ele>656.3</ele>
      </trkpt><trkpt lat="54.457036" lon="-3.121334">
        <ele>656.8</ele>
      </trkpt><trkpt lat="54.457168" lon="-3.121131">
        <ele>657.1</ele>
      </trkpt><trkpt lat="54.45723" lon="-3.120877">
        <ele>657.2</ele>
      </trkpt><trkpt lat="54.457287" lon="-3.120754">
        <ele>657.2</ele>
      </trkpt><trkpt lat="54.458086" lon="-3.120378">
        <ele>654.8</ele>
      </trkpt><trkpt lat="54.458295" lon="-3.120239">
        <ele>653.7</ele>
      </trkpt><trkpt lat="54.4584" lon="-3.1201">
        <ele>653</ele>
      </trkpt><trkpt lat="54.458466" lon="-3.119854">
        <ele>652.3</ele>
      </trkpt><trkpt lat="54.458509" lon="-3.119584">
        <ele>651.6</ele>
      </trkpt><trkpt lat="54.458576" lon="-3.119396">
        <ele>651.2</ele>
      </trkpt><trkpt lat="54.45868" lon="-3.119282">
        <ele>650.9</ele>
      </trkpt><trkpt lat="54.458818" lon="-3.119232">
        <ele>650.8</ele>
      </trkpt><trkpt lat="54.458913" lon="-3.119126">
        <ele>650.7</ele>
      </trkpt><trkpt lat="54.459018" lon="-3.118995">
        <ele>650.8</ele>
      </trkpt><trkpt lat="54.459201" lon="-3.118655">
        <ele>651.4</ele>
      </trkpt><trkpt lat="54.459466" lon="-3.118581">
        <ele>652.5</ele>
      </trkpt><trkpt lat="54.460269" lon="-3.117547">
        <ele>661.8</ele>
      </trkpt><trkpt lat="54.460541" lon="-3.116944">
        <ele>667.7</ele>
      </trkpt><trkpt lat="54.460647" lon="-3.116563">
        <ele>671.3</ele>
      </trkpt><trkpt lat="54.460748" lon="-3.116454">
        <ele>673.1</ele>
      </trkpt><trkpt lat="54.460806" lon="-3.11632">
        <ele>674.6</ele>
      </trkpt><trkpt lat="54.460854" lon="-3.115878">
        <ele>678.8</ele>
      </trkpt><trkpt lat="54.460906" lon="-3.115748">
        <ele>680.3</ele>
      </trkpt><trkpt lat="54.461126" lon="-3.115204">
        <ele>686.6</ele>
      </trkpt><trkpt lat="54.461424" lon="-3.114659">
        <ele>694</ele>
      </trkpt><trkpt lat="54.461487" lon="-3.114197">
        <ele>698.5</ele>
      </trkpt><trkpt lat="54.46185" lon="-3.112954">
        <ele>708.5</ele>
      </trkpt><trkpt lat="54.461874" lon="-3.112879">
        <ele>709</ele>
      </trkpt><trkpt lat="54.462201" lon="-3.112931">
        <ele>711.4</ele>
      </trkpt><trkpt lat="54.462197" lon="-3.112746">
        <ele>712</ele>
      </trkpt><trkpt lat="54.462084" lon="-3.112644">
        <ele>712.6</ele>
      </trkpt><trkpt lat="54.462197" lon="-3.112746">
        <ele>713</ele>
      </trkpt><trkpt lat="54.462201" lon="-3.112931">
        <ele>713.3</ele>
      </trkpt><trkpt lat="54.462611" lon="-3.112825">
        <ele>713.5</ele>
      </trkpt><trkpt lat="54.463019" lon="-3.113055">
        <ele>712.6</ele>
      </trkpt><trkpt lat="54.463491" lon="-3.113053">
        <ele>710.7</ele>
      </trkpt><trkpt lat="54.46394" lon="-3.113137">
        <ele>707.8</ele>
      </trkpt><trkpt lat="54.464368" lon="-3.11317">
        <ele>704.5</ele>
      </trkpt><trkpt lat="54.464888" lon="-3.113071">
        <ele>699.9</ele>
      </trkpt><trkpt lat="54.464992" lon="-3.11327">
        <ele>698.5</ele>
      </trkpt><trkpt lat="54.465202" lon="-3.113417">
        <ele>696.3</ele>
      </trkpt><trkpt lat="54.465431" lon="-3.113501">
        <ele>694</ele>
      </trkpt><trkpt lat="54.465681" lon="-3.113759">
        <ele>691.2</ele>
      </trkpt><trkpt lat="54.465982" lon="-3.113827">
        <ele>688.6</ele>
      </trkpt><trkpt lat="54.46677" lon="-3.113667">
        <ele>682.4</ele>
      </trkpt><trkpt lat="54.467763" lon="-3.113151">
        <ele>677.8</ele>
      </trkpt><trkpt lat="54.468175" lon="-3.113081">
        <ele>677.9</ele>
      </trkpt><trkpt lat="54.468894" lon="-3.112289">
        <ele>681.4</ele>
      </trkpt><trkpt lat="54.469201" lon="-3.111918">
        <ele>683.9</ele>
      </trkpt><trkpt lat="54.469237" lon="-3.111366">
        <ele>686.3</ele>
      </trkpt><trkpt lat="54.469491" lon="-3.110831">
        <ele>689.3</ele>
      </trkpt><trkpt lat="54.470017" lon="-3.109476">
        <ele>695.7</ele>
      </trkpt><trkpt lat="54.470129" lon="-3.108246">
        <ele>700.4</ele>
      </trkpt><trkpt lat="54.470244" lon="-3.107894">
        <ele>701.8</ele>
      </trkpt><trkpt lat="54.470239" lon="-3.107337">
        <ele>703.5</ele>
      </trkpt><trkpt lat="54.47043" lon="-3.106912">
        <ele>704.9</ele>
      </trkpt><trkpt lat="54.470433" lon="-3.105831">
        <ele>706.8</ele>
      </trkpt><trkpt lat="54.470433" lon="-3.105662">
        <ele>707</ele>
      </trkpt><trkpt lat="54.470321" lon="-3.104788">
        <ele>707.9</ele>
      </trkpt><trkpt lat="54.470352" lon="-3.1044">
        <ele>707.9</ele>
      </trkpt><trkpt lat="54.470329" lon="-3.104176">
        <ele>707.6</ele>
      </trkpt><trkpt lat="54.47037" lon="-3.104025">
        <ele>707.5</ele>
      </trkpt><trkpt lat="54.470468" lon="-3.103875">
        <ele>707.5</ele>
      </trkpt><trkpt lat="54.470557" lon="-3.103648">
        <ele>707.6</ele>
      </trkpt><trkpt lat="54.470474" lon="-3.103464">
        <ele>707.9</ele>
      </trkpt><trkpt lat="54.470468" lon="-3.103191">
        <ele>708.4</ele>
      </trkpt><trkpt lat="54.470492" lon="-3.102901">
        <ele>709.2</ele>
      </trkpt><trkpt lat="54.470468" lon="-3.102817">
        <ele>709.4</ele>
      </trkpt><trkpt lat="54.470355" lon="-3.102632">
        <ele>710.3</ele>
      </trkpt><trkpt lat="54.470391" lon="-3.102537">
        <ele>710.7</ele>
      </trkpt><trkpt lat="54.470409" lon="-3.102489">
        <ele>710.9</ele>
      </trkpt><trkpt lat="54.470505" lon="-3.102675">
        <ele>711.8</ele>
      </trkpt><trkpt lat="54.470622" lon="-3.102894">
        <ele>713</ele>
      </trkpt><trkpt lat="54.470676" lon="-3.103066">
        <ele>713.7</ele>
      </trkpt><trkpt lat="54.47089" lon="-3.103391">
        <ele>715.8</ele>
      </trkpt><trkpt lat="54.471292" lon="-3.103501">
        <ele>719.2</ele>
      </trkpt><trkpt lat="54.471695" lon="-3.103611">
        <ele>722.6</ele>
      </trkpt><trkpt lat="54.471744" lon="-3.103415">
        <ele>723.4</ele>
      </trkpt><trkpt lat="54.471796" lon="-3.102929">
        <ele>724.9</ele>
      </trkpt><trkpt lat="54.471917" lon="-3.102949">
        <ele>725.4</ele>
      </trkpt><trkpt lat="54.472152" lon="-3.102904">
        <ele>726.4</ele>
      </trkpt><trkpt lat="54.472369" lon="-3.103102">
        <ele>727.2</ele>
      </trkpt><trkpt lat="54.472562" lon="-3.103127">
        <ele>727.9</ele>
      </trkpt><trkpt lat="54.47268" lon="-3.10318">
        <ele>728.3</ele>
      </trkpt><trkpt lat="54.472828" lon="-3.103343">
        <ele>729</ele>
      </trkpt><trkpt lat="54.472902" lon="-3.103565">
        <ele>729.6</ele>
      </trkpt><trkpt lat="54.472961" lon="-3.103651">
        <ele>730</ele>
      </trkpt><trkpt lat="54.473024" lon="-3.103918">
        <ele>730.7</ele>
      </trkpt><trkpt lat="54.473241" lon="-3.1044">
        <ele>732.4</ele>
      </trkpt><trkpt lat="54.47326" lon="-3.104563">
        <ele>732.9</ele>
      </trkpt><trkpt lat="54.473324" lon="-3.104706">
        <ele>733.5</ele>
      </trkpt><trkpt lat="54.473331" lon="-3.104942">
        <ele>734.2</ele>
      </trkpt><trkpt lat="54.473364" lon="-3.105008">
        <ele>734.5</ele>
      </trkpt><trkpt lat="54.473707" lon="-3.105372">
        <ele>736.6</ele>
      </trkpt><trkpt lat="54.473746" lon="-3.105463">
        <ele>737</ele>
      </trkpt><trkpt lat="54.473925" lon="-3.105568">
        <ele>737.9</ele>
      </trkpt><trkpt lat="54.474108" lon="-3.105759">
        <ele>739</ele>
      </trkpt><trkpt lat="54.474573" lon="-3.10614">
        <ele>741.4</ele>
      </trkpt><trkpt lat="54.47489" lon="-3.106417">
        <ele>743</ele>
      </trkpt><trkpt lat="54.47543" lon="-3.106784">
        <ele>745.7</ele>
      </trkpt><trkpt lat="54.47595" lon="-3.107484">
        <ele>748.5</ele>
      </trkpt><trkpt lat="54.476554" lon="-3.107923">
        <ele>750.7</ele>
      </trkpt><trkpt lat="54.477364" lon="-3.108633">
        <ele>749</ele>
      </trkpt><trkpt lat="54.477391" lon="-3.108681">
        <ele>748.8</ele>
      </trkpt><trkpt lat="54.478211" lon="-3.108741">
        <ele>741.4</ele>
      </trkpt><trkpt lat="54.478532" lon="-3.10881">
        <ele>737.6</ele>
      </trkpt><trkpt lat="54.478724" lon="-3.108773">
        <ele>735.3</ele>
      </trkpt><trkpt lat="54.478908" lon="-3.108818">
        <ele>733.1</ele>
      </trkpt><trkpt lat="54.479078" lon="-3.108795">
        <ele>731.3</ele>
      </trkpt><trkpt lat="54.480053" lon="-3.108925">
        <ele>723.9</ele>
      </trkpt><trkpt lat="54.480548" lon="-3.108915">
        <ele>720.2</ele>
      </trkpt><trkpt lat="54.480727" lon="-3.109018">
        <ele>718.4</ele>
      </trkpt><trkpt lat="54.480819" lon="-3.108919">
        <ele>717.2</ele>
      </trkpt><trkpt lat="54.480951" lon="-3.108896">
        <ele>715.7</ele>
      </trkpt><trkpt lat="54.481166" lon="-3.108601">
        <ele>712</ele>
      </trkpt><trkpt lat="54.481166" lon="-3.108283">
        <ele>709.1</ele>
      </trkpt><trkpt lat="54.481299" lon="-3.108117">
        <ele>706.2</ele>
      </trkpt><trkpt lat="54.481564" lon="-3.108023">
        <ele>700.8</ele>
      </trkpt><trkpt lat="54.481881" lon="-3.107727">
        <ele>692.7</ele>
      </trkpt><trkpt lat="54.482582" lon="-3.10707">
        <ele>673.3</ele>
      </trkpt><trkpt lat="54.482717" lon="-3.106708">
        <ele>666.9</ele>
      </trkpt><trkpt lat="54.482911" lon="-3.106635">
        <ele>661.9</ele>
      </trkpt><trkpt lat="54.483211" lon="-3.106329">
        <ele>653</ele>
      </trkpt><trkpt lat="54.483612" lon="-3.10582">
        <ele>640.6</ele>
      </trkpt><trkpt lat="54.483811" lon="-3.10579">
        <ele>635.9</ele>
      </trkpt><trkpt lat="54.484015" lon="-3.105587">
        <ele>630.8</ele>
      </trkpt><trkpt lat="54.484082" lon="-3.105442">
        <ele>628.6</ele>
      </trkpt><trkpt lat="54.48418" lon="-3.105335">
        <ele>626.4</ele>
      </trkpt><trkpt lat="54.484235" lon="-3.105313">
        <ele>625.3</ele>
      </trkpt><trkpt lat="54.484336" lon="-3.105352">
        <ele>623.5</ele>
      </trkpt><trkpt lat="54.484422" lon="-3.105315">
        <ele>621.9</ele>
      </trkpt><trkpt lat="54.484668" lon="-3.105018">
        <ele>617.5</ele>
      </trkpt><trkpt lat="54.484793" lon="-3.104567">
        <ele>614.1</ele>
      </trkpt><trkpt lat="54.485214" lon="-3.10396">
        <ele>609.5</ele>
      </trkpt><trkpt lat="54.485234" lon="-3.104036">
        <ele>609.2</ele>
      </trkpt><trkpt lat="54.48526" lon="-3.104066">
        <ele>609</ele>
      </trkpt><trkpt lat="54.485465" lon="-3.1043">
        <ele>607.8</ele>
      </trkpt><trkpt lat="54.485788" lon="-3.104479">
        <ele>606.6</ele>
      </trkpt><trkpt lat="54.48588" lon="-3.10438">
        <ele>606.3</ele>
      </trkpt><trkpt lat="54.485996" lon="-3.10438">
        <ele>606.1</ele>
      </trkpt><trkpt lat="54.486159" lon="-3.104578">
        <ele>605.6</ele>
      </trkpt><trkpt lat="54.486251" lon="-3.104615">
        <ele>605.5</ele>
      </trkpt><trkpt lat="54.486352" lon="-3.104542">
        <ele>605.2</ele>
      </trkpt><trkpt lat="54.486413" lon="-3.104642">
        <ele>605</ele>
      </trkpt><trkpt lat="54.486509" lon="-3.104655">
        <ele>604.8</ele>
      </trkpt><trkpt lat="54.486618" lon="-3.104574">
        <ele>604.4</ele>
      </trkpt><trkpt lat="54.486871" lon="-3.104351">
        <ele>603.7</ele>
      </trkpt><trkpt lat="54.486942" lon="-3.10436">
        <ele>603.6</ele>
      </trkpt><trkpt lat="54.487235" lon="-3.104604">
        <ele>602.7</ele>
      </trkpt><trkpt lat="54.487677" lon="-3.104789">
        <ele>601.1</ele>
      </trkpt><trkpt lat="54.487957" lon="-3.104932">
        <ele>599.5</ele>
      </trkpt><trkpt lat="54.488109" lon="-3.105136">
        <ele>598.1</ele>
      </trkpt><trkpt lat="54.488259" lon="-3.105494">
        <ele>595.7</ele>
      </trkpt><trkpt lat="54.488523" lon="-3.105909">
        <ele>591.4</ele>
      </trkpt><trkpt lat="54.488569" lon="-3.106029">
        <ele>590.3</ele>
      </trkpt><trkpt lat="54.488947" lon="-3.106304">
        <ele>583.9</ele>
      </trkpt><trkpt lat="54.489104" lon="-3.10663">
        <ele>579.4</ele>
      </trkpt><trkpt lat="54.489183" lon="-3.106709">
        <ele>577.6</ele>
      </trkpt><trkpt lat="54.489328" lon="-3.106983">
        <ele>573.1</ele>
      </trkpt><trkpt lat="54.489614" lon="-3.107191">
        <ele>565.8</ele>
      </trkpt><trkpt lat="54.489842" lon="-3.107463">
        <ele>558.7</ele>
      </trkpt><trkpt lat="54.489993" lon="-3.107502">
        <ele>554.5</ele>
      </trkpt><trkpt lat="54.490149" lon="-3.107776">
        <ele>548.3</ele>
      </trkpt><trkpt lat="54.49029" lon="-3.107784">
        <ele>545</ele>
      </trkpt><trkpt lat="54.490406" lon="-3.107741">
        <ele>542.4</ele>
      </trkpt><trkpt lat="54.490727" lon="-3.107856">
        <ele>535.6</ele>
      </trkpt><trkpt lat="54.490819" lon="-3.107936">
        <ele>533.3</ele>
      </trkpt><trkpt lat="54.490988" lon="-3.108146">
        <ele>529</ele>
      </trkpt><trkpt lat="54.491043" lon="-3.108261">
        <ele>527.1</ele>
      </trkpt><trkpt lat="54.49107" lon="-3.108265">
        <ele>526.4</ele>
      </trkpt><trkpt lat="54.491077" lon="-3.107931">
        <ele>522</ele>
      </trkpt><trkpt lat="54.491039" lon="-3.107848">
        <ele>520.6</ele>
      </trkpt><trkpt lat="54.491051" lon="-3.107679">
        <ele>518.3</ele>
      </trkpt><trkpt lat="54.491098" lon="-3.10746">
        <ele>515</ele>
      </trkpt><trkpt lat="54.491176" lon="-3.107435">
        <ele>513.1</ele>
      </trkpt><trkpt lat="54.491275" lon="-3.107491">
        <ele>510.5</ele>
      </trkpt><trkpt lat="54.491289" lon="-3.107542">
        <ele>509.6</ele>
      </trkpt><trkpt lat="54.491467" lon="-3.107619">
        <ele>504.4</ele>
      </trkpt><trkpt lat="54.491499" lon="-3.107524">
        <ele>502.6</ele>
      </trkpt><trkpt lat="54.491581" lon="-3.107519">
        <ele>500.4</ele>
      </trkpt><trkpt lat="54.491599" lon="-3.107538">
        <ele>499.7</ele>
      </trkpt><trkpt lat="54.491589" lon="-3.107651">
        <ele>498</ele>
      </trkpt><trkpt lat="54.491634" lon="-3.107692">
        <ele>496.7</ele>
      </trkpt><trkpt lat="54.49177" lon="-3.107691">
        <ele>492.8</ele>
      </trkpt><trkpt lat="54.491782" lon="-3.107731">
        <ele>492</ele>
      </trkpt><trkpt lat="54.491736" lon="-3.107812">
        <ele>489.9</ele>
      </trkpt><trkpt lat="54.491725" lon="-3.107935">
        <ele>487.4</ele>
      </trkpt><trkpt lat="54.491877" lon="-3.108238">
        <ele>479.4</ele>
      </trkpt><trkpt lat="54.491978" lon="-3.108285">
        <ele>475.9</ele>
      </trkpt><trkpt lat="54.492151" lon="-3.108524">
        <ele>468.4</ele>
      </trkpt><trkpt lat="54.492281" lon="-3.108669">
        <ele>463</ele>
      </trkpt><trkpt lat="54.49234" lon="-3.108641">
        <ele>461</ele>
      </trkpt><trkpt lat="54.492417" lon="-3.108695">
        <ele>458.3</ele>
      </trkpt><trkpt lat="54.492558" lon="-3.108717">
        <ele>453.8</ele>
      </trkpt><trkpt lat="54.492733" lon="-3.10867">
        <ele>448.2</ele>
      </trkpt><trkpt lat="54.492784" lon="-3.10871">
        <ele>446.5</ele>
      </trkpt><trkpt lat="54.492981" lon="-3.108747">
        <ele>440.7</ele>
      </trkpt><trkpt lat="54.493074" lon="-3.108854">
        <ele>437.7</ele>
      </trkpt><trkpt lat="54.493195" lon="-3.108846">
        <ele>434.7</ele>
      </trkpt><trkpt lat="54.493251" lon="-3.108918">
        <ele>433.1</ele>
      </trkpt><trkpt lat="54.493286" lon="-3.108886">
        <ele>432.2</ele>
      </trkpt><trkpt lat="54.493366" lon="-3.108956">
        <ele>430.2</ele>
      </trkpt><trkpt lat="54.493445" lon="-3.109001">
        <ele>428.4</ele>
      </trkpt><trkpt lat="54.49346" lon="-3.109056">
        <ele>427.7</ele>
      </trkpt><trkpt lat="54.493514" lon="-3.109107">
        <ele>426.4</ele>
      </trkpt><trkpt lat="54.493623" lon="-3.109125">
        <ele>424.1</ele>
      </trkpt><trkpt lat="54.493792" lon="-3.109279">
        <ele>420.3</ele>
      </trkpt><trkpt lat="54.493961" lon="-3.109269">
        <ele>417.1</ele>
      </trkpt><trkpt lat="54.494088" lon="-3.10942">
        <ele>414.4</ele>
      </trkpt><trkpt lat="54.49435" lon="-3.109565">
        <ele>410.2</ele>
      </trkpt><trkpt lat="54.494431" lon="-3.109755">
        <ele>408.4</ele>
      </trkpt><trkpt lat="54.494472" lon="-3.109786">
        <ele>407.8</ele>
      </trkpt><trkpt lat="54.494638" lon="-3.109781">
        <ele>405.8</ele>
      </trkpt><trkpt lat="54.494703" lon="-3.109843">
        <ele>404.9</ele>
      </trkpt><trkpt lat="54.494771" lon="-3.110015">
        <ele>403.6</ele>
      </trkpt><trkpt lat="54.494968" lon="-3.110344">
        <ele>400.7</ele>
      </trkpt><trkpt lat="54.494996" lon="-3.11052">
        <ele>399.6</ele>
      </trkpt><trkpt lat="54.495074" lon="-3.110507">
        <ele>398.7</ele>
      </trkpt><trkpt lat="54.495165" lon="-3.110551">
        <ele>397.7</ele>
      </trkpt><trkpt lat="54.495194" lon="-3.110525">
        <ele>397.4</ele>
      </trkpt><trkpt lat="54.4952" lon="-3.110451">
        <ele>396.9</ele>
      </trkpt><trkpt lat="54.495351" lon="-3.110329">
        <ele>395</ele>
      </trkpt><trkpt lat="54.495598" lon="-3.110444">
        <ele>391.8</ele>
      </trkpt><trkpt lat="54.495791" lon="-3.110716">
        <ele>388.1</ele>
      </trkpt><trkpt lat="54.496027" lon="-3.110748">
        <ele>384.3</ele>
      </trkpt><trkpt lat="54.496108" lon="-3.110795">
        <ele>382.8</ele>
      </trkpt><trkpt lat="54.496137" lon="-3.110848">
        <ele>382.1</ele>
      </trkpt><trkpt lat="54.496252" lon="-3.110749">
        <ele>379.7</ele>
      </trkpt><trkpt lat="54.496492" lon="-3.11074">
        <ele>375.2</ele>
      </trkpt><trkpt lat="54.496582" lon="-3.110671">
        <ele>373.3</ele>
      </trkpt><trkpt lat="54.496674" lon="-3.110729">
        <ele>371.3</ele>
      </trkpt><trkpt lat="54.496899" lon="-3.111084">
        <ele>365.3</ele>
      </trkpt><trkpt lat="54.496983" lon="-3.111127">
        <ele>363.6</ele>
      </trkpt><trkpt lat="54.497242" lon="-3.111101">
        <ele>358.4</ele>
      </trkpt><trkpt lat="54.497371" lon="-3.111326">
        <ele>354.6</ele>
      </trkpt><trkpt lat="54.49754" lon="-3.111457">
        <ele>350.8</ele>
      </trkpt><trkpt lat="54.497846" lon="-3.111436">
        <ele>344.3</ele>
      </trkpt><trkpt lat="54.497889" lon="-3.111361">
        <ele>342.9</ele>
      </trkpt><trkpt lat="54.497958" lon="-3.111354">
        <ele>341.3</ele>
      </trkpt><trkpt lat="54.497974" lon="-3.111305">
        <ele>340.6</ele>
      </trkpt><trkpt lat="54.498169" lon="-3.111417">
        <ele>335.7</ele>
      </trkpt><trkpt lat="54.49822" lon="-3.111391">
        <ele>334.4</ele>
      </trkpt><trkpt lat="54.498226" lon="-3.111429">
        <ele>333.9</ele>
      </trkpt><trkpt lat="54.498418" lon="-3.111514">
        <ele>329</ele>
      </trkpt><trkpt lat="54.498419" lon="-3.111561">
        <ele>328.3</ele>
      </trkpt><trkpt lat="54.498503" lon="-3.111665">
        <ele>325.7</ele>
      </trkpt><trkpt lat="54.498537" lon="-3.111657">
        <ele>324.8</ele>
      </trkpt><trkpt lat="54.49856" lon="-3.111715">
        <ele>323.8</ele>
      </trkpt><trkpt lat="54.49885" lon="-3.111848">
        <ele>315.9</ele>
      </trkpt><trkpt lat="54.498843" lon="-3.111871">
        <ele>315.5</ele>
      </trkpt><trkpt lat="54.4989" lon="-3.111936">
        <ele>313.7</ele>
      </trkpt><trkpt lat="54.498981" lon="-3.111978">
        <ele>311.5</ele>
      </trkpt><trkpt lat="54.498997" lon="-3.112057">
        <ele>310.2</ele>
      </trkpt><trkpt lat="54.499165" lon="-3.112081">
        <ele>306</ele>
      </trkpt><trkpt lat="54.499166" lon="-3.112111">
        <ele>305.5</ele>
      </trkpt><trkpt lat="54.499239" lon="-3.11213">
        <ele>303.7</ele>
      </trkpt><trkpt lat="54.499254" lon="-3.11219">
        <ele>302.8</ele>
      </trkpt><trkpt lat="54.499283" lon="-3.112205">
        <ele>302.1</ele>
      </trkpt><trkpt lat="54.499277" lon="-3.11227">
        <ele>301.1</ele>
      </trkpt><trkpt lat="54.499334" lon="-3.112388">
        <ele>299</ele>
      </trkpt><trkpt lat="54.499561" lon="-3.112548">
        <ele>293.4</ele>
      </trkpt><trkpt lat="54.499609" lon="-3.112562">
        <ele>292.4</ele>
      </trkpt><trkpt lat="54.499761" lon="-3.112447">
        <ele>289</ele>
      </trkpt><trkpt lat="54.499805" lon="-3.112471">
        <ele>288.1</ele>
      </trkpt><trkpt lat="54.499887" lon="-3.112641">
        <ele>285.8</ele>
      </trkpt><trkpt lat="54.499928" lon="-3.112636">
        <ele>285</ele>
      </trkpt><trkpt lat="54.500046" lon="-3.112858">
        <ele>282</ele>
      </trkpt><trkpt lat="54.50009" lon="-3.112894">
        <ele>281.2</ele>
      </trkpt><trkpt lat="54.500201" lon="-3.112929">
        <ele>279.4</ele>
      </trkpt><trkpt lat="54.50025" lon="-3.112904">
        <ele>278.6</ele>
      </trkpt><trkpt lat="54.500291" lon="-3.112882">
        <ele>277.9</ele>
      </trkpt><trkpt lat="54.500446" lon="-3.11295">
        <ele>275.4</ele>
      </trkpt><trkpt lat="54.50049" lon="-3.113026">
        <ele>274.5</ele>
      </trkpt><trkpt lat="54.500542" lon="-3.113002">
        <ele>273.8</ele>
      </trkpt><trkpt lat="54.500559" lon="-3.113038">
        <ele>273.4</ele>
      </trkpt><trkpt lat="54.500678" lon="-3.11305">
        <ele>271.7</ele>
      </trkpt><trkpt lat="54.500742" lon="-3.113131">
        <ele>270.6</ele>
      </trkpt><trkpt lat="54.500847" lon="-3.113173">
        <ele>269.1</ele>
      </trkpt><trkpt lat="54.501053" lon="-3.113583">
        <ele>264.7</ele>
      </trkpt><trkpt lat="54.501111" lon="-3.113745">
        <ele>263.1</ele>
      </trkpt><trkpt lat="54.501109" lon="-3.113863">
        <ele>262.1</ele>
      </trkpt><trkpt lat="54.501139" lon="-3.113907">
        <ele>261.5</ele>
      </trkpt><trkpt lat="54.50124" lon="-3.113899">
        <ele>259.9</ele>
      </trkpt><trkpt lat="54.501311" lon="-3.114014">
        <ele>258.4</ele>
      </trkpt><trkpt lat="54.501311" lon="-3.114014">
        <ele>258.4</ele>
      </trkpt><trkpt lat="54.501423" lon="-3.114108">
        <ele>256.5</ele>
      </trkpt><trkpt lat="54.501452" lon="-3.114215">
        <ele>255.3</ele>
      </trkpt><trkpt lat="54.501699" lon="-3.11444">
        <ele>250.6</ele>
      </trkpt><trkpt lat="54.501791" lon="-3.114501">
        <ele>248.9</ele>
      </trkpt><trkpt lat="54.501979" lon="-3.114506">
        <ele>245.6</ele>
      </trkpt><trkpt lat="54.50214" lon="-3.114634">
        <ele>242.3</ele>
      </trkpt><trkpt lat="54.502266" lon="-3.114886">
        <ele>238.7</ele>
      </trkpt><trkpt lat="54.502327" lon="-3.114851">
        <ele>237.5</ele>
      </trkpt><trkpt lat="54.502529" lon="-3.115005">
        <ele>233.2</ele>
      </trkpt><trkpt lat="54.502677" lon="-3.115211">
        <ele>229.6</ele>
      </trkpt><trkpt lat="54.502789" lon="-3.115648">
        <ele>224.2</ele>
      </trkpt><trkpt lat="54.502912" lon="-3.115888">
        <ele>220.7</ele>
      </trkpt><trkpt lat="54.503188" lon="-3.11622">
        <ele>214.3</ele>
      </trkpt><trkpt lat="54.503581" lon="-3.116771">
        <ele>205.3</ele>
      </trkpt><trkpt lat="54.503705" lon="-3.117023">
        <ele>202.1</ele>
      </trkpt><trkpt lat="54.503885" lon="-3.117287">
        <ele>198.2</ele>
      </trkpt><trkpt lat="54.503957" lon="-3.117452">
        <ele>196.3</ele>
      </trkpt><trkpt lat="54.504119" lon="-3.117649">
        <ele>193.3</ele>
      </trkpt><trkpt lat="54.50423" lon="-3.11805">
        <ele>189.5</ele>
      </trkpt><trkpt lat="54.504506" lon="-3.118274">
        <ele>185.2</ele>
      </trkpt><trkpt lat="54.504563" lon="-3.118359">
        <ele>184.1</ele>
      </trkpt><trkpt lat="54.504606" lon="-3.118386">
        <ele>183.4</ele>
      </trkpt><trkpt lat="54.504693" lon="-3.118366">
        <ele>182.2</ele>
      </trkpt><trkpt lat="54.504815" lon="-3.118428">
        <ele>180.4</ele>
      </trkpt><trkpt lat="54.504939" lon="-3.118708">
        <ele>177.5</ele>
      </trkpt><trkpt lat="54.504973" lon="-3.118867">
        <ele>176.2</ele>
      </trkpt><trkpt lat="54.505226" lon="-3.119114">
        <ele>172.3</ele>
      </trkpt><trkpt lat="54.505406" lon="-3.119224">
        <ele>169.7</ele>
      </trkpt><trkpt lat="54.505458" lon="-3.119287">
        <ele>168.8</ele>
      </trkpt><trkpt lat="54.505557" lon="-3.119513">
        <ele>166.6</ele>
      </trkpt><trkpt lat="54.50565" lon="-3.119555">
        <ele>165.3</ele>
      </trkpt><trkpt lat="54.505759" lon="-3.119819">
        <ele>162.7</ele>
      </trkpt><trkpt lat="54.50587" lon="-3.11995">
        <ele>160.9</ele>
      </trkpt><trkpt lat="54.506096" lon="-3.120044">
        <ele>157.7</ele>
      </trkpt><trkpt lat="54.506377" lon="-3.120476">
        <ele>152.6</ele>
      </trkpt><trkpt lat="54.506673" lon="-3.121057">
        <ele>146.6</ele>
      </trkpt><trkpt lat="54.506804" lon="-3.121205">
        <ele>144.8</ele>
      </trkpt><trkpt lat="54.50702" lon="-3.121739">
        <ele>141</ele>
      </trkpt><trkpt lat="54.507159" lon="-3.121917">
        <ele>139.5</ele>
      </trkpt><trkpt lat="54.507237" lon="-3.122121">
        <ele>138.5</ele>
      </trkpt><trkpt lat="54.507256" lon="-3.122283">
        <ele>137.9</ele>
      </trkpt><trkpt lat="54.507162" lon="-3.122169">
        <ele>137.4</ele>
      </trkpt><trkpt lat="54.507111" lon="-3.122237">
        <ele>137.1</ele>
      </trkpt><trkpt lat="54.507042" lon="-3.12225">
        <ele>136.9</ele>
      </trkpt><trkpt lat="54.506952" lon="-3.122441">
        <ele>136.5</ele>
      </trkpt><trkpt lat="54.506924" lon="-3.122497">
        <ele>136.4</ele>
      </trkpt><trkpt lat="54.506853" lon="-3.122544">
        <ele>136.4</ele>
      </trkpt><trkpt lat="54.506763" lon="-3.122665">
        <ele>136.4</ele>
      </trkpt><trkpt lat="54.506745" lon="-3.122715">
        <ele>136.4</ele>
      </trkpt><trkpt lat="54.506667" lon="-3.122931">
        <ele>136.7</ele>
      </trkpt><trkpt lat="54.50659" lon="-3.122985">
        <ele>136.9</ele>
      </trkpt><trkpt lat="54.506553" lon="-3.122961">
        <ele>137</ele>
      </trkpt><trkpt lat="54.506447" lon="-3.12317">
        <ele>137.6</ele>
      </trkpt><trkpt lat="54.506283" lon="-3.123236">
        <ele>138.5</ele>
      </trkpt><trkpt lat="54.506222" lon="-3.123301">
        <ele>138.9</ele>
      </trkpt><trkpt lat="54.50617" lon="-3.123251">
        <ele>139.2</ele>
      </trkpt><trkpt lat="54.50611" lon="-3.123297">
        <ele>139.5</ele>
      </trkpt><trkpt lat="54.506017" lon="-3.12328">
        <ele>140</ele>
      </trkpt><trkpt lat="54.505972" lon="-3.123313">
        <ele>140.2</ele>
      </trkpt><trkpt lat="54.50591" lon="-3.123398">
        <ele>140.7</ele>
      </trkpt><trkpt lat="54.505851" lon="-3.123552">
        <ele>141.2</ele>
      </trkpt><trkpt lat="54.505479" lon="-3.124081">
        <ele>144</ele>
      </trkpt><trkpt lat="54.505245" lon="-3.124618">
        <ele>145.9</ele>
      </trkpt><trkpt lat="54.505072" lon="-3.124832">
        <ele>146.9</ele>
      </trkpt><trkpt lat="54.50493" lon="-3.124957">
        <ele>147.5</ele>
      </trkpt><trkpt lat="54.504602" lon="-3.12511">
        <ele>148.6</ele>
      </trkpt><trkpt lat="54.504417" lon="-3.125405">
        <ele>149.3</ele>
      </trkpt><trkpt lat="54.503886" lon="-3.125844">
        <ele>151</ele>
      </trkpt><trkpt lat="54.50343" lon="-3.126194">
        <ele>152.6</ele>
      </trkpt><trkpt lat="54.503071" lon="-3.126285">
        <ele>154</ele>
      </trkpt><trkpt lat="54.50301" lon="-3.126333">
        <ele>154.3</ele>
      </trkpt><trkpt lat="54.50298" lon="-3.126414">
        <ele>154.6</ele>
      </trkpt><trkpt lat="54.502657" lon="-3.126546">
        <ele>156.2</ele>
      </trkpt><trkpt lat="54.502466" lon="-3.126564">
        <ele>157.2</ele>
      </trkpt><trkpt lat="54.502403" lon="-3.126671">
        <ele>157.6</ele>
      </trkpt><trkpt lat="54.502259" lon="-3.126698">
        <ele>158.4</ele>
      </trkpt><trkpt lat="54.502138" lon="-3.126631">
        <ele>159.1</ele>
      </trkpt><trkpt lat="54.501928" lon="-3.126739">
        <ele>160.3</ele>
      </trkpt><trkpt lat="54.501762" lon="-3.126955">
        <ele>161.5</ele>
      </trkpt><trkpt lat="54.501661" lon="-3.127036">
        <ele>162</ele>
      </trkpt><trkpt lat="54.501492" lon="-3.127051">
        <ele>162.9</ele>
      </trkpt><trkpt lat="54.501298" lon="-3.127194">
        <ele>163.9</ele>
      </trkpt><trkpt lat="54.501106" lon="-3.127244">
        <ele>164.8</ele>
      </trkpt><trkpt lat="54.50093" lon="-3.127337">
        <ele>165.4</ele>
      </trkpt><trkpt lat="54.500723" lon="-3.12734">
        <ele>166</ele>
      </trkpt><trkpt lat="54.500218" lon="-3.127536">
        <ele>166.7</ele>
      </trkpt><trkpt lat="54.499761" lon="-3.127605">
        <ele>166.5</ele>
      </trkpt><trkpt lat="54.499646" lon="-3.127546">
        <ele>166.3</ele>
      </trkpt><trkpt lat="54.499346" lon="-3.127597">
        <ele>165.7</ele>
      </trkpt><trkpt lat="54.499157" lon="-3.127724">
        <ele>165.1</ele>
      </trkpt><trkpt lat="54.499074" lon="-3.127685">
        <ele>164.9</ele>
      </trkpt><trkpt lat="54.498942" lon="-3.12773">
        <ele>164.5</ele>
      </trkpt><trkpt lat="54.498271" lon="-3.127758">
        <ele>163.6</ele>
      </trkpt><trkpt lat="54.498153" lon="-3.127802">
        <ele>163.7</ele>
      </trkpt><trkpt lat="54.497708" lon="-3.127784">
        <ele>164.7</ele>
      </trkpt><trkpt lat="54.496421" lon="-3.128118">
        <ele>172.6</ele>
      </trkpt><trkpt lat="54.496078" lon="-3.128298">
        <ele>175.2</ele>
      </trkpt><trkpt lat="54.495721" lon="-3.128335">
        <ele>177.7</ele>
      </trkpt><trkpt lat="54.495468" lon="-3.128451">
        <ele>179.5</ele>
      </trkpt><trkpt lat="54.495314" lon="-3.128471">
        <ele>180.5</ele>
      </trkpt><trkpt lat="54.494925" lon="-3.128707">
        <ele>183.1</ele>
      </trkpt><trkpt lat="54.493591" lon="-3.12982">
        <ele>191.7</ele>
      </trkpt><trkpt lat="54.493313" lon="-3.130176">
        <ele>192.8</ele>
      </trkpt><trkpt lat="54.493199" lon="-3.130389">
        <ele>193</ele>
      </trkpt><trkpt lat="54.493082" lon="-3.130731">
        <ele>193</ele>
      </trkpt><trkpt lat="54.493081" lon="-3.130969">
        <ele>192.8</ele>
      </trkpt><trkpt lat="54.493004" lon="-3.131377">
        <ele>192.4</ele>
      </trkpt><trkpt lat="54.492926" lon="-3.131534">
        <ele>192.1</ele>
      </trkpt><trkpt lat="54.492625" lon="-3.131891">
        <ele>190.9</ele>
      </trkpt><trkpt lat="54.492409" lon="-3.13209">
        <ele>190</ele>
      </trkpt><trkpt lat="54.492198" lon="-3.132138">
        <ele>189.3</ele>
      </trkpt><trkpt lat="54.492167" lon="-3.132229">
        <ele>189.1</ele>
      </trkpt><trkpt lat="54.492078" lon="-3.132299">
        <ele>188.8</ele>
      </trkpt><trkpt lat="54.491957" lon="-3.132294">
        <ele>188.5</ele>
      </trkpt><trkpt lat="54.491678" lon="-3.132426">
        <ele>188.1</ele>
      </trkpt><trkpt lat="54.491657" lon="-3.132438">
        <ele>188.1</ele>
      </trkpt><trkpt lat="54.491657" lon="-3.132438">
        <ele>188.1</ele>
      </trkpt><trkpt lat="54.491624" lon="-3.13245">
        <ele>188.1</ele>
      </trkpt><trkpt lat="54.491489" lon="-3.132495">
        <ele>188.1</ele>
      </trkpt><trkpt lat="54.491379" lon="-3.132589">
        <ele>188.1</ele>
      </trkpt><trkpt lat="54.49114" lon="-3.132558">
        <ele>188.3</ele>
      </trkpt><trkpt lat="54.490561" lon="-3.13269">
        <ele>188.9</ele>
      </trkpt><trkpt lat="54.489729" lon="-3.133177">
        <ele>189.9</ele>
      </trkpt><trkpt lat="54.489413" lon="-3.133397">
        <ele>190.4</ele>
      </trkpt><trkpt lat="54.488943" lon="-3.133545">
        <ele>191.4</ele>
      </trkpt><trkpt lat="54.488836" lon="-3.133545">
        <ele>191.7</ele>
      </trkpt><trkpt lat="54.488444" lon="-3.133956">
        <ele>193.2</ele>
      </trkpt><trkpt lat="54.488134" lon="-3.134009">
        <ele>194.2</ele>
      </trkpt><trkpt lat="54.48784" lon="-3.133957">
        <ele>195</ele>
      </trkpt><trkpt lat="54.487717" lon="-3.134151">
        <ele>195.5</ele>
      </trkpt><trkpt lat="54.487312" lon="-3.134253">
        <ele>196.4</ele>
      </trkpt><trkpt lat="54.487119" lon="-3.1344">
        <ele>196.8</ele>
      </trkpt><trkpt lat="54.486738" lon="-3.134778">
        <ele>197.7</ele>
      </trkpt><trkpt lat="54.486598" lon="-3.134864">
        <ele>198</ele>
      </trkpt><trkpt lat="54.486445" lon="-3.134889">
        <ele>198.3</ele>
      </trkpt><trkpt lat="54.486358" lon="-3.134989">
        <ele>198.6</ele>
      </trkpt><trkpt lat="54.486179" lon="-3.135089">
        <ele>199.1</ele>
      </trkpt><trkpt lat="54.48607" lon="-3.135323">
        <ele>199.6</ele>
      </trkpt><trkpt lat="54.485936" lon="-3.135336">
        <ele>200.1</ele>
      </trkpt><trkpt lat="54.485804" lon="-3.135494">
        <ele>200.7</ele>
      </trkpt><trkpt lat="54.485567" lon="-3.13547">
        <ele>201.8</ele>
      </trkpt><trkpt lat="54.485425" lon="-3.135355">
        <ele>202.5</ele>
      </trkpt><trkpt lat="54.485167" lon="-3.135293">
        <ele>203.7</ele>
      </trkpt><trkpt lat="54.484958" lon="-3.135096">
        <ele>204.8</ele>
      </trkpt><trkpt lat="54.484644" lon="-3.135065">
        <ele>206.3</ele>
      </trkpt><trkpt lat="54.48448" lon="-3.135107">
        <ele>207</ele>
      </trkpt><trkpt lat="54.484348" lon="-3.13504">
        <ele>207.6</ele>
      </trkpt><trkpt lat="54.484096" lon="-3.135033">
        <ele>208.6</ele>
      </trkpt><trkpt lat="54.483933" lon="-3.135142">
        <ele>209.2</ele>
      </trkpt><trkpt lat="54.48386" lon="-3.13514">
        <ele>209.4</ele>
      </trkpt><trkpt lat="54.483759" lon="-3.135199">
        <ele>209.7</ele>
      </trkpt><trkpt lat="54.483639" lon="-3.135184">
        <ele>210</ele>
      </trkpt><trkpt lat="54.483454" lon="-3.135307">
        <ele>210.4</ele>
      </trkpt><trkpt lat="54.483262" lon="-3.135226">
        <ele>210.7</ele>
      </trkpt><trkpt lat="54.483068" lon="-3.135258">
        <ele>210.9</ele>
      </trkpt><trkpt lat="54.482928" lon="-3.135373">
        <ele>211.1</ele>
      </trkpt><trkpt lat="54.482704" lon="-3.135411">
        <ele>211.3</ele>
      </trkpt><trkpt lat="54.482621" lon="-3.135392">
        <ele>211.4</ele>
      </trkpt><trkpt lat="54.482458" lon="-3.135426">
        <ele>211.7</ele>
      </trkpt><trkpt lat="54.482396" lon="-3.135473">
        <ele>211.8</ele>
      </trkpt><trkpt lat="54.482308" lon="-3.13547">
        <ele>211.9</ele>
      </trkpt><trkpt lat="54.482282" lon="-3.135494">
        <ele>212</ele>
      </trkpt><trkpt lat="54.482279" lon="-3.135553">
        <ele>212.1</ele>
      </trkpt><trkpt lat="54.482229" lon="-3.135597">
        <ele>212.3</ele>
      </trkpt><trkpt lat="54.482138" lon="-3.135618">
        <ele>212.6</ele>
      </trkpt><trkpt lat="54.482058" lon="-3.135707">
        <ele>212.9</ele>
      </trkpt><trkpt lat="54.481904" lon="-3.135761">
        <ele>213.6</ele>
      </trkpt><trkpt lat="54.481581" lon="-3.13561">
        <ele>215.2</ele>
      </trkpt><trkpt lat="54.481507" lon="-3.135612">
        <ele>215.6</ele>
      </trkpt><trkpt lat="54.481318" lon="-3.135732">
        <ele>216.8</ele>
      </trkpt><trkpt lat="54.481257" lon="-3.135723">
        <ele>217.2</ele>
      </trkpt><trkpt lat="54.481137" lon="-3.135636">
        <ele>218</ele>
      </trkpt><trkpt lat="54.480852" lon="-3.135626">
        <ele>220.1</ele>
      </trkpt><trkpt lat="54.480606" lon="-3.135494">
        <ele>222</ele>
      </trkpt><trkpt lat="54.48018" lon="-3.135658">
        <ele>224.7</ele>
      </trkpt><trkpt lat="54.4799" lon="-3.135652">
        <ele>225.9</ele>
      </trkpt><trkpt lat="54.479814" lon="-3.135652">
        <ele>226.2</ele>
      </trkpt><trkpt lat="54.479524" lon="-3.135795">
        <ele>226.8</ele>
      </trkpt><trkpt lat="54.479425" lon="-3.135776">
        <ele>227.1</ele>
      </trkpt><trkpt lat="54.479197" lon="-3.135822">
        <ele>227.9</ele>
      </trkpt><trkpt lat="54.479007" lon="-3.1358">
        <ele>228.9</ele>
      </trkpt><trkpt lat="54.478707" lon="-3.136058">
        <ele>231.2</ele>
      </trkpt><trkpt lat="54.478586" lon="-3.136028">
        <ele>232.2</ele>
      </trkpt><trkpt lat="54.478472" lon="-3.136055">
        <ele>233.2</ele>
      </trkpt><trkpt lat="54.478397" lon="-3.136132">
        <ele>234</ele>
      </trkpt><trkpt lat="54.478239" lon="-3.136215">
        <ele>235.8</ele>
      </trkpt><trkpt lat="54.47813" lon="-3.136166">
        <ele>237.2</ele>
      </trkpt><trkpt lat="54.478" lon="-3.135989">
        <ele>239.5</ele>
      </trkpt><trkpt lat="54.477952" lon="-3.13583">
        <ele>241.1</ele>
      </trkpt><trkpt lat="54.477761" lon="-3.135691">
        <ele>244.6</ele>
      </trkpt><trkpt lat="54.47752" lon="-3.135878">
        <ele>249.7</ele>
      </trkpt><trkpt lat="54.477329" lon="-3.135827">
        <ele>253.7</ele>
      </trkpt><trkpt lat="54.477227" lon="-3.135715">
        <ele>256.2</ele>
      </trkpt><trkpt lat="54.477089" lon="-3.135867">
        <ele>259.5</ele>
      </trkpt><trkpt lat="54.477003" lon="-3.135891">
        <ele>261.2</ele>
      </trkpt><trkpt lat="54.476724" lon="-3.135538">
        <ele>267.9</ele>
      </trkpt><trkpt lat="54.476502" lon="-3.135403">
        <ele>272.7</ele>
      </trkpt><trkpt lat="54.476495" lon="-3.135392">
        <ele>272.9</ele>
      </trkpt><trkpt lat="54.476465" lon="-3.13534">
        <ele>273.9</ele>
      </trkpt><trkpt lat="54.476441" lon="-3.135122">
        <ele>276.7</ele>
      </trkpt><trkpt lat="54.476384" lon="-3.134946">
        <ele>279.4</ele>
      </trkpt><trkpt lat="54.476394" lon="-3.134861">
        <ele>280.5</ele>
      </trkpt><trkpt lat="54.476485" lon="-3.134703">
        <ele>283.5</ele>
      </trkpt><trkpt lat="54.476527" lon="-3.134535">
        <ele>286</ele>
      </trkpt><trkpt lat="54.476522" lon="-3.13444">
        <ele>287.3</ele>
      </trkpt><trkpt lat="54.476474" lon="-3.13441">
        <ele>288.6</ele>
      </trkpt><trkpt lat="54.47641" lon="-3.134537">
        <ele>291</ele>
      </trkpt><trkpt lat="54.476324" lon="-3.134511">
        <ele>293.2</ele>
      </trkpt><trkpt lat="54.476195" lon="-3.134567">
        <ele>296.7</ele>
      </trkpt><trkpt lat="54.476105" lon="-3.134556">
        <ele>299.1</ele>
      </trkpt><trkpt lat="54.476122" lon="-3.13449">
        <ele>300.3</ele>
      </trkpt><trkpt lat="54.476072" lon="-3.134357">
        <ele>302.8</ele>
      </trkpt><trkpt lat="54.475881" lon="-3.134439">
        <ele>308.5</ele>
      </trkpt><trkpt lat="54.475761" lon="-3.134417">
        <ele>312.2</ele>
      </trkpt><trkpt lat="54.47573" lon="-3.134272">
        <ele>314.9</ele>
      </trkpt><trkpt lat="54.475618" lon="-3.134282">
        <ele>318.5</ele>
      </trkpt><trkpt lat="54.475573" lon="-3.134161">
        <ele>321.2</ele>
      </trkpt><trkpt lat="54.475394" lon="-3.13405">
        <ele>327.4</ele>
      </trkpt><trkpt lat="54.475335" lon="-3.133899">
        <ele>330.9</ele>
      </trkpt><trkpt lat="54.475226" lon="-3.13399">
        <ele>334.8</ele>
      </trkpt><trkpt lat="54.475168" lon="-3.133627">
        <ele>341.7</ele>
      </trkpt><trkpt lat="54.475026" lon="-3.13331">
        <ele>348.8</ele>
      </trkpt><trkpt lat="54.474961" lon="-3.133048">
        <ele>353.7</ele>
      </trkpt><trkpt lat="54.47493" lon="-3.133013">
        <ele>354.7</ele>
      </trkpt><trkpt lat="54.474889" lon="-3.133083">
        <ele>356.4</ele>
      </trkpt><trkpt lat="54.474688" lon="-3.132956">
        <ele>362.3</ele>
      </trkpt><trkpt lat="54.474651" lon="-3.133113">
        <ele>364.9</ele>
      </trkpt><trkpt lat="54.474651" lon="-3.133325">
        <ele>368.1</ele>
      </trkpt><trkpt lat="54.474611" lon="-3.133345">
        <ele>369.1</ele>
      </trkpt><trkpt lat="54.474572" lon="-3.13317">
        <ele>371.8</ele>
      </trkpt><trkpt lat="54.474542" lon="-3.133405">
        <ele>375.3</ele>
      </trkpt><trkpt lat="54.474507" lon="-3.133385">
        <ele>376.2</ele>
      </trkpt><trkpt lat="54.474506" lon="-3.133332">
        <ele>376.9</ele>
      </trkpt><trkpt lat="54.474411" lon="-3.133119">
        <ele>380.7</ele>
      </trkpt><trkpt lat="54.474382" lon="-3.133122">
        <ele>381.3</ele>
      </trkpt><trkpt lat="54.474362" lon="-3.133307">
        <ele>383.8</ele>
      </trkpt><trkpt lat="54.474161" lon="-3.132971">
        <ele>390.2</ele>
      </trkpt><trkpt lat="54.474172" lon="-3.133324">
        <ele>394.8</ele>
      </trkpt><trkpt lat="54.474113" lon="-3.133512">
        <ele>397.6</ele>
      </trkpt><trkpt lat="54.473945" lon="-3.133096">
        <ele>404.4</ele>
      </trkpt><trkpt lat="54.47393" lon="-3.133197">
        <ele>405.8</ele>
      </trkpt><trkpt lat="54.473865" lon="-3.133083">
        <ele>408.1</ele>
      </trkpt><trkpt lat="54.473839" lon="-3.133079">
        <ele>408.7</ele>
      </trkpt><trkpt lat="54.473821" lon="-3.133182">
        <ele>410.2</ele>
      </trkpt><trkpt lat="54.473735" lon="-3.133331">
        <ele>413.2</ele>
      </trkpt><trkpt lat="54.473707" lon="-3.133332">
        <ele>413.9</ele>
      </trkpt><trkpt lat="54.473689" lon="-3.133194">
        <ele>415.8</ele>
      </trkpt><trkpt lat="54.473644" lon="-3.133137">
        <ele>417.2</ele>
      </trkpt><trkpt lat="54.473587" lon="-3.133127">
        <ele>418.5</ele>
      </trkpt><trkpt lat="54.47356" lon="-3.133243">
        <ele>420.2</ele>
      </trkpt><trkpt lat="54.473516" lon="-3.133288">
        <ele>421.4</ele>
      </trkpt><trkpt lat="54.473318" lon="-3.133038">
        <ele>426.9</ele>
      </trkpt><trkpt lat="54.473185" lon="-3.13272">
        <ele>431.5</ele>
      </trkpt><trkpt lat="54.47312" lon="-3.132637">
        <ele>433.1</ele>
      </trkpt><trkpt lat="54.473007" lon="-3.132557">
        <ele>435.4</ele>
      </trkpt><trkpt lat="54.472912" lon="-3.13258">
        <ele>437.2</ele>
      </trkpt><trkpt lat="54.47284" lon="-3.132417">
        <ele>439.3</ele>
      </trkpt><trkpt lat="54.47277" lon="-3.132482">
        <ele>440.6</ele>
      </trkpt><trkpt lat="54.47272" lon="-3.132484">
        <ele>441.4</ele>
      </trkpt><trkpt lat="54.472436" lon="-3.132497">
        <ele>445.6</ele>
      </trkpt><trkpt lat="54.472361" lon="-3.132557">
        <ele>446.6</ele>
      </trkpt><trkpt lat="54.472292" lon="-3.132745">
        <ele>448.2</ele>
      </trkpt><trkpt lat="54.47217" lon="-3.132924">
        <ele>450</ele>
      </trkpt><trkpt lat="54.472015" lon="-3.133033">
        <ele>451.6</ele>
      </trkpt><trkpt lat="54.471916" lon="-3.133202">
        <ele>452.7</ele>
      </trkpt><trkpt lat="54.471859" lon="-3.133202">
        <ele>453.2</ele>
      </trkpt><trkpt lat="54.47178" lon="-3.133396">
        <ele>454.2</ele>
      </trkpt><trkpt lat="54.471697" lon="-3.133729">
        <ele>455.7</ele>
      </trkpt><trkpt lat="54.471628" lon="-3.133848">
        <ele>456.3</ele>
      </trkpt><trkpt lat="54.470941" lon="-3.134245">
        <ele>460.4</ele>
      </trkpt><trkpt lat="54.470814" lon="-3.134384">
        <ele>461.2</ele>
      </trkpt><trkpt lat="54.470652" lon="-3.134464">
        <ele>462.2</ele>
      </trkpt><trkpt lat="54.470537" lon="-3.134603">
        <ele>463</ele>
      </trkpt><trkpt lat="54.470516" lon="-3.134621">
        <ele>463.1</ele>
      </trkpt><trkpt lat="54.470352" lon="-3.134672">
        <ele>464.1</ele>
      </trkpt><trkpt lat="54.470075" lon="-3.134851">
        <ele>465.9</ele>
      </trkpt><trkpt lat="54.469948" lon="-3.134811">
        <ele>466.7</ele>
      </trkpt><trkpt lat="54.469833" lon="-3.134871">
        <ele>467.5</ele>
      </trkpt><trkpt lat="54.469688" lon="-3.135079">
        <ele>468.6</ele>
      </trkpt><trkpt lat="54.469573" lon="-3.135079">
        <ele>469.3</ele>
      </trkpt><trkpt lat="54.469475" lon="-3.135175">
        <ele>470</ele>
      </trkpt><trkpt lat="54.469411" lon="-3.135527">
        <ele>471.3</ele>
      </trkpt><trkpt lat="54.469383" lon="-3.135581">
        <ele>471.5</ele>
      </trkpt><trkpt lat="54.469279" lon="-3.135654">
        <ele>472.2</ele>
      </trkpt><trkpt lat="54.469159" lon="-3.135602">
        <ele>472.9</ele>
      </trkpt><trkpt lat="54.469065" lon="-3.135514">
        <ele>473.6</ele>
      </trkpt><trkpt lat="54.469027" lon="-3.135424">
        <ele>474</ele>
      </trkpt><trkpt lat="54.468714" lon="-3.135194">
        <ele>475.6</ele>
      </trkpt><trkpt lat="54.468558" lon="-3.13521">
        <ele>475.9</ele>
      </trkpt><trkpt lat="54.468493" lon="-3.135159">
        <ele>476</ele>
      </trkpt><trkpt lat="54.468359" lon="-3.135212">
        <ele>476</ele>
      </trkpt><trkpt lat="54.468274" lon="-3.135292">
        <ele>476</ele>
      </trkpt><trkpt lat="54.468181" lon="-3.135307">
        <ele>475.9</ele>
      </trkpt><trkpt lat="54.467997" lon="-3.135217">
        <ele>475.4</ele>
      </trkpt><trkpt lat="54.467905" lon="-3.135268">
        <ele>475.1</ele>
      </trkpt><trkpt lat="54.467826" lon="-3.135372">
        <ele>474.7</ele>
      </trkpt><trkpt lat="54.467729" lon="-3.13568">
        <ele>473.7</ele>
      </trkpt><trkpt lat="54.467734" lon="-3.135797">
        <ele>473.2</ele>
      </trkpt><trkpt lat="54.467699" lon="-3.13591">
        <ele>472.8</ele>
      </trkpt><trkpt lat="54.467613" lon="-3.135963">
        <ele>472.2</ele>
      </trkpt><trkpt lat="54.467572" lon="-3.136031">
        <ele>471.8</ele>
      </trkpt><trkpt lat="54.467341" lon="-3.13612">
        <ele>469.7</ele>
      </trkpt><trkpt lat="54.467279" lon="-3.136245">
        <ele>468.8</ele>
      </trkpt><trkpt lat="54.46702" lon="-3.136409">
        <ele>465.6</ele>
      </trkpt><trkpt lat="54.466778" lon="-3.136861">
        <ele>461.3</ele>
      </trkpt><trkpt lat="54.466741" lon="-3.136907">
        <ele>460.7</ele>
      </trkpt><trkpt lat="54.466635" lon="-3.136929">
        <ele>459.5</ele>
      </trkpt><trkpt lat="54.466604" lon="-3.137033">
        <ele>458.7</ele>
      </trkpt><trkpt lat="54.466592" lon="-3.137358">
        <ele>456.5</ele>
      </trkpt><trkpt lat="54.466569" lon="-3.13742">
        <ele>456</ele>
      </trkpt><trkpt lat="54.466324" lon="-3.137729">
        <ele>452.8</ele>
      </trkpt><trkpt lat="54.46632" lon="-3.137788">
        <ele>452.4</ele>
      </trkpt><trkpt lat="54.466273" lon="-3.137851">
        <ele>451.7</ele>
      </trkpt><trkpt lat="54.466255" lon="-3.13795">
        <ele>451.1</ele>
      </trkpt><trkpt lat="54.466127" lon="-3.138264">
        <ele>448.8</ele>
      </trkpt><trkpt lat="54.465962" lon="-3.138402">
        <ele>447.2</ele>
      </trkpt><trkpt lat="54.465873" lon="-3.138615">
        <ele>446.1</ele>
      </trkpt><trkpt lat="54.465764" lon="-3.13866">
        <ele>445.4</ele>
      </trkpt><trkpt lat="54.465581" lon="-3.138809">
        <ele>444.2</ele>
      </trkpt><trkpt lat="54.465535" lon="-3.139064">
        <ele>443.5</ele>
      </trkpt><trkpt lat="54.465453" lon="-3.139175">
        <ele>443.1</ele>
      </trkpt><trkpt lat="54.465314" lon="-3.139186">
        <ele>442.6</ele>
      </trkpt><trkpt lat="54.465223" lon="-3.139407">
        <ele>442.1</ele>
      </trkpt><trkpt lat="54.465163" lon="-3.13949">
        <ele>441.8</ele>
      </trkpt><trkpt lat="54.465009" lon="-3.139549">
        <ele>441.4</ele>
      </trkpt><trkpt lat="54.464959" lon="-3.139673">
        <ele>441.2</ele>
      </trkpt><trkpt lat="54.464937" lon="-3.139888">
        <ele>440.8</ele>
      </trkpt><trkpt lat="54.464908" lon="-3.139934">
        <ele>440.6</ele>
      </trkpt><trkpt lat="54.464742" lon="-3.140007">
        <ele>440.1</ele>
      </trkpt><trkpt lat="54.464641" lon="-3.1402">
        <ele>439.6</ele>
      </trkpt><trkpt lat="54.464565" lon="-3.140259">
        <ele>439.3</ele>
      </trkpt><trkpt lat="54.464436" lon="-3.140439">
        <ele>438.5</ele>
      </trkpt><trkpt lat="54.464369" lon="-3.140637">
        <ele>437.6</ele>
      </trkpt><trkpt lat="54.464235" lon="-3.140886">
        <ele>436</ele>
      </trkpt><trkpt lat="54.464225" lon="-3.141064">
        <ele>435.1</ele>
      </trkpt><trkpt lat="54.464274" lon="-3.141156">
        <ele>434.4</ele>
      </trkpt><trkpt lat="54.464276" lon="-3.141228">
        <ele>434</ele>
      </trkpt><trkpt lat="54.46424" lon="-3.141345">
        <ele>433.2</ele>
      </trkpt><trkpt lat="54.464151" lon="-3.141541">
        <ele>431.7</ele>
      </trkpt><trkpt lat="54.464155" lon="-3.141723">
        <ele>430.5</ele>
      </trkpt><trkpt lat="54.46412" lon="-3.141902">
        <ele>429.4</ele>
      </trkpt><trkpt lat="54.463893" lon="-3.142151">
        <ele>427.1</ele>
      </trkpt><trkpt lat="54.46381" lon="-3.14235">
        <ele>426.3</ele>
      </trkpt><trkpt lat="54.463692" lon="-3.142395">
        <ele>425.7</ele>
      </trkpt><trkpt lat="54.463653" lon="-3.142459">
        <ele>425.6</ele>
      </trkpt><trkpt lat="54.46359" lon="-3.142545">
        <ele>425.4</ele>
      </trkpt><trkpt lat="54.46354" lon="-3.142722">
        <ele>425.4</ele>
      </trkpt><trkpt lat="54.463498" lon="-3.1431">
        <ele>425.9</ele>
      </trkpt><trkpt lat="54.463497" lon="-3.143482">
        <ele>427.5</ele>
      </trkpt><trkpt lat="54.463408" lon="-3.144098">
        <ele>431.8</ele>
      </trkpt><trkpt lat="54.463352" lon="-3.144307">
        <ele>433.8</ele>
      </trkpt><trkpt lat="54.463351" lon="-3.144478">
        <ele>435.5</ele>
      </trkpt><trkpt lat="54.463211" lon="-3.14471">
        <ele>439.1</ele>
      </trkpt><trkpt lat="54.463126" lon="-3.144775">
        <ele>440.9</ele>
      </trkpt><trkpt lat="54.463111" lon="-3.144872">
        <ele>442.2</ele>
      </trkpt><trkpt lat="54.463141" lon="-3.14493">
        <ele>443.1</ele>
      </trkpt><trkpt lat="54.463127" lon="-3.145275">
        <ele>447.4</ele>
      </trkpt><trkpt lat="54.463056" lon="-3.145495">
        <ele>450.5</ele>
      </trkpt><trkpt lat="54.46292" lon="-3.145654">
        <ele>454.1</ele>
      </trkpt><trkpt lat="54.46281" lon="-3.145922">
        <ele>458.4</ele>
      </trkpt><trkpt lat="54.462476" lon="-3.146465">
        <ele>468.8</ele>
      </trkpt><trkpt lat="54.462489" lon="-3.14658">
        <ele>470.4</ele>
      </trkpt><trkpt lat="54.462446" lon="-3.14691">
        <ele>474.9</ele>
      </trkpt><trkpt lat="54.462463" lon="-3.146966">
        <ele>475.7</ele>
      </trkpt><trkpt lat="54.462429" lon="-3.147305">
        <ele>480.3</ele>
      </trkpt><trkpt lat="54.462447" lon="-3.147486">
        <ele>482.8</ele>
      </trkpt><trkpt lat="54.462388" lon="-3.147777">
        <ele>487.1</ele>
      </trkpt><trkpt lat="54.462396" lon="-3.147938">
        <ele>489.3</ele>
      </trkpt><trkpt lat="54.462278" lon="-3.148368">
        <ele>496</ele>
      </trkpt><trkpt lat="54.462185" lon="-3.148564">
        <ele>499.6</ele>
      </trkpt><trkpt lat="54.462121" lon="-3.148776">
        <ele>503</ele>
      </trkpt><trkpt lat="54.462048" lon="-3.148904">
        <ele>505.6</ele>
      </trkpt><trkpt lat="54.461982" lon="-3.149268">
        <ele>511</ele>
      </trkpt><trkpt lat="54.461892" lon="-3.14949">
        <ele>514.7</ele>
      </trkpt><trkpt lat="54.461859" lon="-3.149659">
        <ele>517.2</ele>
      </trkpt><trkpt lat="54.46182" lon="-3.150083">
        <ele>523</ele>
      </trkpt><trkpt lat="54.461824" lon="-3.15025">
        <ele>525.4</ele>
      </trkpt><trkpt lat="54.461793" lon="-3.150368">
        <ele>527.1</ele>
      </trkpt><trkpt lat="54.4618" lon="-3.150464">
        <ele>528.5</ele>
      </trkpt><trkpt lat="54.461772" lon="-3.150496">
        <ele>529.3</ele>
      </trkpt><trkpt lat="54.461769" lon="-3.150644">
        <ele>531.3</ele>
      </trkpt><trkpt lat="54.461729" lon="-3.150689">
        <ele>532.4</ele>
      </trkpt><trkpt lat="54.461709" lon="-3.150925">
        <ele>535.5</ele>
      </trkpt><trkpt lat="54.461719" lon="-3.151155">
        <ele>538.5</ele>
      </trkpt><trkpt lat="54.461689" lon="-3.151308">
        <ele>540.5</ele>
      </trkpt><trkpt lat="54.461756" lon="-3.151763">
        <ele>546.3</ele>
      </trkpt><trkpt lat="54.46187" lon="-3.152139">
        <ele>551.3</ele>
      </trkpt><trkpt lat="54.46187" lon="-3.152416">
        <ele>554.4</ele>
      </trkpt><trkpt lat="54.461751" lon="-3.152416">
        <ele>556.6</ele>
      </trkpt><trkpt lat="54.461617" lon="-3.152576">
        <ele>559.5</ele>
      </trkpt><trkpt lat="54.461619" lon="-3.152656">
        <ele>560.3</ele>
      </trkpt><trkpt lat="54.461545" lon="-3.152842">
        <ele>562.5</ele>
      </trkpt><trkpt lat="54.461315" lon="-3.153188">
        <ele>567.2</ele>
      </trkpt><trkpt lat="54.461292" lon="-3.153331">
        <ele>568.3</ele>
      </trkpt><trkpt lat="54.461292" lon="-3.153567">
        <ele>570</ele>
      </trkpt><trkpt lat="54.461191" lon="-3.15426">
        <ele>574.7</ele>
      </trkpt><trkpt lat="54.461089" lon="-3.154741">
        <ele>577.5</ele>
      </trkpt><trkpt lat="54.460972" lon="-3.154916">
        <ele>578.9</ele>
      </trkpt><trkpt lat="54.460785" lon="-3.155287">
        <ele>581.4</ele>
      </trkpt><trkpt lat="54.460446" lon="-3.155753">
        <ele>585.1</ele>
      </trkpt><trkpt lat="54.460351" lon="-3.155765">
        <ele>586</ele>
      </trkpt><trkpt lat="54.460242" lon="-3.15584">
        <ele>587.1</ele>
      </trkpt><trkpt lat="54.460162" lon="-3.156002">
        <ele>588.4</ele>
      </trkpt><trkpt lat="54.459842" lon="-3.15646">
        <ele>593.4</ele>
      </trkpt><trkpt lat="54.459605" lon="-3.156886">
        <ele>598.5</ele>
      </trkpt><trkpt lat="54.459512" lon="-3.156986">
        <ele>600.3</ele>
      </trkpt><trkpt lat="54.45946" lon="-3.157129">
        <ele>601.9</ele>
      </trkpt><trkpt lat="54.459337" lon="-3.157237">
        <ele>604.2</ele>
      </trkpt><trkpt lat="54.459261" lon="-3.157462">
        <ele>606.7</ele>
      </trkpt><trkpt lat="54.459168" lon="-3.157601">
        <ele>608.6</ele>
      </trkpt><trkpt lat="54.458982" lon="-3.158018">
        <ele>612.7</ele>
      </trkpt><trkpt lat="54.45886" lon="-3.158384">
        <ele>615.3</ele>
      </trkpt><trkpt lat="54.458775" lon="-3.158767">
        <ele>616.8</ele>
      </trkpt><trkpt lat="54.458626" lon="-3.158896">
        <ele>617.3</ele>
      </trkpt><trkpt lat="54.458446" lon="-3.159183">
        <ele>617.5</ele>
      </trkpt><trkpt lat="54.458131" lon="-3.159474">
        <ele>616.5</ele>
      </trkpt><trkpt lat="54.458061" lon="-3.159826">
        <ele>615.4</ele>
      </trkpt><trkpt lat="54.457955" lon="-3.160067">
        <ele>614.3</ele>
      </trkpt><trkpt lat="54.45795" lon="-3.159895">
        <ele>613.6</ele>
      </trkpt><trkpt lat="54.457955" lon="-3.160067">
        <ele>612.9</ele>
      </trkpt><trkpt lat="54.457983" lon="-3.160378">
        <ele>611.6</ele>
      </trkpt><trkpt lat="54.458026" lon="-3.160516">
        <ele>610.9</ele>
      </trkpt><trkpt lat="54.458035" lon="-3.160661">
        <ele>610.3</ele>
      </trkpt><trkpt lat="54.458118" lon="-3.160912">
        <ele>609.2</ele>
      </trkpt><trkpt lat="54.458198" lon="-3.161123">
        <ele>608.4</ele>
      </trkpt><trkpt lat="54.458284" lon="-3.161203">
        <ele>608</ele>
      </trkpt><trkpt lat="54.458288" lon="-3.16132">
        <ele>607.7</ele>
      </trkpt><trkpt lat="54.458222" lon="-3.16173">
        <ele>607</ele>
      </trkpt><trkpt lat="54.458228" lon="-3.161921">
        <ele>606.6</ele>
      </trkpt><trkpt lat="54.458028" lon="-3.162692">
        <ele>603.7</ele>
      </trkpt><trkpt lat="54.457896" lon="-3.163031">
        <ele>601.8</ele>
      </trkpt><trkpt lat="54.457747" lon="-3.163211">
        <ele>600.1</ele>
      </trkpt><trkpt lat="54.457704" lon="-3.163064">
        <ele>599</ele>
      </trkpt><trkpt lat="54.457639" lon="-3.162964">
        <ele>598.1</ele>
      </trkpt><trkpt lat="54.457591" lon="-3.162743">
        <ele>596.6</ele>
      </trkpt><trkpt lat="54.457537" lon="-3.162701">
        <ele>595.8</ele>
      </trkpt><trkpt lat="54.457426" lon="-3.162375">
        <ele>592.9</ele>
      </trkpt><trkpt lat="54.457267" lon="-3.162189">
        <ele>589.9</ele>
      </trkpt><trkpt lat="54.457125" lon="-3.161677">
        <ele>584</ele>
      </trkpt><trkpt lat="54.456996" lon="-3.16149">
        <ele>580.7</ele>
      </trkpt><trkpt lat="54.456896" lon="-3.161231">
        <ele>577.2</ele>
      </trkpt><trkpt lat="54.456857" lon="-3.161228">
        <ele>576.4</ele>
      </trkpt><trkpt lat="54.456829" lon="-3.161138">
        <ele>575.2</ele>
      </trkpt><trkpt lat="54.456768" lon="-3.161077">
        <ele>573.7</ele>
      </trkpt><trkpt lat="54.456702" lon="-3.16094">
        <ele>571.6</ele>
      </trkpt><trkpt lat="54.456574" lon="-3.160823">
        <ele>568.4</ele>
      </trkpt><trkpt lat="54.456353" lon="-3.160534">
        <ele>562.1</ele>
      </trkpt><trkpt lat="54.456213" lon="-3.160418">
        <ele>558.4</ele>
      </trkpt><trkpt lat="54.456067" lon="-3.160373">
        <ele>554.7</ele>
      </trkpt><trkpt lat="54.455975" lon="-3.160283">
        <ele>552</ele>
      </trkpt><trkpt lat="54.455888" lon="-3.160249">
        <ele>549.8</ele>
      </trkpt><trkpt lat="54.455852" lon="-3.160191">
        <ele>548.5</ele>
      </trkpt><trkpt lat="54.455783" lon="-3.160162">
        <ele>546.7</ele>
      </trkpt><trkpt lat="54.455738" lon="-3.160059">
        <ele>544.8</ele>
      </trkpt><trkpt lat="54.455626" lon="-3.160059">
        <ele>541.9</ele>
      </trkpt><trkpt lat="54.455559" lon="-3.160126">
        <ele>539.9</ele>
      </trkpt><trkpt lat="54.455378" lon="-3.160068">
        <ele>535.1</ele>
      </trkpt><trkpt lat="54.45537" lon="-3.159997">
        <ele>534</ele>
      </trkpt><trkpt lat="54.455276" lon="-3.160011">
        <ele>531.7</ele>
      </trkpt><trkpt lat="54.455298" lon="-3.159787">
        <ele>528.4</ele>
      </trkpt><trkpt lat="54.455274" lon="-3.159681">
        <ele>526.7</ele>
      </trkpt><trkpt lat="54.455289" lon="-3.159605">
        <ele>525.6</ele>
      </trkpt><trkpt lat="54.455205" lon="-3.159496">
        <ele>523</ele>
      </trkpt><trkpt lat="54.455141" lon="-3.159495">
        <ele>521.4</ele>
      </trkpt><trkpt lat="54.455113" lon="-3.159543">
        <ele>520.4</ele>
      </trkpt><trkpt lat="54.455056" lon="-3.159564">
        <ele>519</ele>
      </trkpt><trkpt lat="54.454977" lon="-3.15974">
        <ele>515.8</ele>
      </trkpt><trkpt lat="54.45493" lon="-3.15976">
        <ele>514.6</ele>
      </trkpt><trkpt lat="54.454776" lon="-3.159709">
        <ele>510.9</ele>
      </trkpt><trkpt lat="54.454686" lon="-3.15964">
        <ele>508.6</ele>
      </trkpt><trkpt lat="54.454583" lon="-3.159459">
        <ele>505.2</ele>
      </trkpt><trkpt lat="54.45453" lon="-3.159451">
        <ele>503.9</ele>
      </trkpt><trkpt lat="54.454426" lon="-3.159347">
        <ele>501.2</ele>
      </trkpt><trkpt lat="54.45424" lon="-3.159285">
        <ele>496.8</ele>
      </trkpt><trkpt lat="54.454131" lon="-3.159309">
        <ele>494.3</ele>
      </trkpt><trkpt lat="54.453951" lon="-3.159198">
        <ele>490</ele>
      </trkpt><trkpt lat="54.453918" lon="-3.159115">
        <ele>488.8</ele>
      </trkpt><trkpt lat="54.453841" lon="-3.159032">
        <ele>486.8</ele>
      </trkpt><trkpt lat="54.453714" lon="-3.15896">
        <ele>483.9</ele>
      </trkpt><trkpt lat="54.453659" lon="-3.158858">
        <ele>482.2</ele>
      </trkpt><trkpt lat="54.453565" lon="-3.158781">
        <ele>479.8</ele>
      </trkpt><trkpt lat="54.453549" lon="-3.158707">
        <ele>478.8</ele>
      </trkpt><trkpt lat="54.453611" lon="-3.158612">
        <ele>476.9</ele>
      </trkpt><trkpt lat="54.453675" lon="-3.158611">
        <ele>475.4</ele>
      </trkpt><trkpt lat="54.453883" lon="-3.158405">
        <ele>469.8</ele>
      </trkpt><trkpt lat="54.453898" lon="-3.158304">
        <ele>468.4</ele>
      </trkpt><trkpt lat="54.453957" lon="-3.158244">
        <ele>466.7</ele>
      </trkpt><trkpt lat="54.453979" lon="-3.158223">
        <ele>466.1</ele>
      </trkpt><trkpt lat="54.454217" lon="-3.158185">
        <ele>460.5</ele>
      </trkpt><trkpt lat="54.454352" lon="-3.158234">
        <ele>457.1</ele>
      </trkpt><trkpt lat="54.454604" lon="-3.158234">
        <ele>450.9</ele>
      </trkpt><trkpt lat="54.454688" lon="-3.158171">
        <ele>448.7</ele>
      </trkpt><trkpt lat="54.454819" lon="-3.157969">
        <ele>444.5</ele>
      </trkpt><trkpt lat="54.454874" lon="-3.157829">
        <ele>442.2</ele>
      </trkpt><trkpt lat="54.454935" lon="-3.157526">
        <ele>437.8</ele>
      </trkpt><trkpt lat="54.455084" lon="-3.157019">
        <ele>429.9</ele>
      </trkpt><trkpt lat="54.455196" lon="-3.156906">
        <ele>426.7</ele>
      </trkpt><trkpt lat="54.455249" lon="-3.15675">
        <ele>424.1</ele>
      </trkpt><trkpt lat="54.455451" lon="-3.156608">
        <ele>418.8</ele>
      </trkpt><trkpt lat="54.455515" lon="-3.156441">
        <ele>416</ele>
      </trkpt><trkpt lat="54.455532" lon="-3.156258">
        <ele>413.4</ele>
      </trkpt><trkpt lat="54.455418" lon="-3.156157">
        <ele>410.2</ele>
      </trkpt><trkpt lat="54.45535" lon="-3.156192">
        <ele>408.5</ele>
      </trkpt><trkpt lat="54.455187" lon="-3.156135">
        <ele>404.4</ele>
      </trkpt><trkpt lat="54.4551" lon="-3.156149">
        <ele>402.2</ele>
      </trkpt><trkpt lat="54.455036" lon="-3.156098">
        <ele>400.5</ele>
      </trkpt><trkpt lat="54.454943" lon="-3.156184">
        <ele>397.8</ele>
      </trkpt><trkpt lat="54.45481" lon="-3.156187">
        <ele>394.5</ele>
      </trkpt><trkpt lat="54.454759" lon="-3.156148">
        <ele>393.1</ele>
      </trkpt><trkpt lat="54.454622" lon="-3.156208">
        <ele>389.3</ele>
      </trkpt><trkpt lat="54.454576" lon="-3.156154">
        <ele>387.8</ele>
      </trkpt><trkpt lat="54.454592" lon="-3.156001">
        <ele>385.3</ele>
      </trkpt><trkpt lat="54.454773" lon="-3.155692">
        <ele>378.1</ele>
      </trkpt><trkpt lat="54.454787" lon="-3.155569">
        <ele>376</ele>
      </trkpt><trkpt lat="54.454834" lon="-3.155543">
        <ele>374.6</ele>
      </trkpt><trkpt lat="54.454875" lon="-3.155463">
        <ele>372.8</ele>
      </trkpt><trkpt lat="54.454901" lon="-3.155303">
        <ele>370.1</ele>
      </trkpt><trkpt lat="54.454891" lon="-3.155223">
        <ele>368.7</ele>
      </trkpt><trkpt lat="54.454951" lon="-3.155066">
        <ele>365.5</ele>
      </trkpt><trkpt lat="54.455005" lon="-3.154819">
        <ele>361</ele>
      </trkpt><trkpt lat="54.454983" lon="-3.154562">
        <ele>356.5</ele>
      </trkpt><trkpt lat="54.455071" lon="-3.154221">
        <ele>350</ele>
      </trkpt><trkpt lat="54.455082" lon="-3.153972">
        <ele>345.6</ele>
      </trkpt><trkpt lat="54.455035" lon="-3.153651">
        <ele>340</ele>
      </trkpt><trkpt lat="54.45495" lon="-3.153494">
        <ele>336.3</ele>
      </trkpt><trkpt lat="54.454857" lon="-3.153493">
        <ele>333.7</ele>
      </trkpt><trkpt lat="54.454747" lon="-3.153406">
        <ele>330.1</ele>
      </trkpt><trkpt lat="54.454735" lon="-3.153172">
        <ele>326.3</ele>
      </trkpt><trkpt lat="54.45465" lon="-3.153167">
        <ele>323.9</ele>
      </trkpt><trkpt lat="54.454611" lon="-3.153049">
        <ele>321.7</ele>
      </trkpt><trkpt lat="54.454668" lon="-3.152646">
        <ele>315.4</ele>
      </trkpt><trkpt lat="54.454655" lon="-3.152304">
        <ele>310.4</ele>
      </trkpt><trkpt lat="54.454738" lon="-3.152145">
        <ele>307.3</ele>
      </trkpt><trkpt lat="54.454693" lon="-3.151766">
        <ele>301.8</ele>
      </trkpt><trkpt lat="54.454733" lon="-3.151402">
        <ele>296.6</ele>
      </trkpt><trkpt lat="54.45473" lon="-3.151077">
        <ele>292.1</ele>
      </trkpt><trkpt lat="54.454819" lon="-3.150648">
        <ele>285.6</ele>
      </trkpt><trkpt lat="54.454783" lon="-3.150306">
        <ele>280.6</ele>
      </trkpt><trkpt lat="54.454829" lon="-3.149741">
        <ele>272</ele>
      </trkpt><trkpt lat="54.454842" lon="-3.149087">
        <ele>261.8</ele>
      </trkpt><trkpt lat="54.454912" lon="-3.14896">
        <ele>259</ele>
      </trkpt><trkpt lat="54.454942" lon="-3.148815">
        <ele>256.5</ele>
      </trkpt><trkpt lat="54.454943" lon="-3.148497">
        <ele>251.3</ele>
      </trkpt><trkpt lat="54.454923" lon="-3.148414">
        <ele>249.9</ele>
      </trkpt><trkpt lat="54.454947" lon="-3.148132">
        <ele>245.3</ele>
      </trkpt><trkpt lat="54.454925" lon="-3.148043">
        <ele>243.7</ele>
      </trkpt><trkpt lat="54.454937" lon="-3.147777">
        <ele>239.4</ele>
      </trkpt><trkpt lat="54.455022" lon="-3.147565">
        <ele>235.4</ele>
      </trkpt><trkpt lat="54.455162" lon="-3.147413">
        <ele>231</ele>
      </trkpt><trkpt lat="54.455189" lon="-3.147261">
        <ele>228.6</ele>
      </trkpt><trkpt lat="54.455175" lon="-3.147142">
        <ele>226.9</ele>
      </trkpt><trkpt lat="54.455377" lon="-3.146319">
        <ele>215</ele>
      </trkpt><trkpt lat="54.455497" lon="-3.146138">
        <ele>211.8</ele>
      </trkpt><trkpt lat="54.455548" lon="-3.145899">
        <ele>208.9</ele>
      </trkpt><trkpt lat="54.455636" lon="-3.145648">
        <ele>205.8</ele>
      </trkpt><trkpt lat="54.455739" lon="-3.145484">
        <ele>203.2</ele>
      </trkpt><trkpt lat="54.455822" lon="-3.145223">
        <ele>200.3</ele>
      </trkpt><trkpt lat="54.455973" lon="-3.144927">
        <ele>196.4</ele>
      </trkpt><trkpt lat="54.456075" lon="-3.1445">
        <ele>192.2</ele>
      </trkpt><trkpt lat="54.456148" lon="-3.144325">
        <ele>190.3</ele>
      </trkpt><trkpt lat="54.456144" lon="-3.144191">
        <ele>189.1</ele>
      </trkpt><trkpt lat="54.456099" lon="-3.14398">
        <ele>187.1</ele>
      </trkpt><trkpt lat="54.456078" lon="-3.14365">
        <ele>184.3</ele>
      </trkpt><trkpt lat="54.456126" lon="-3.14341">
        <ele>182.2</ele>
      </trkpt><trkpt lat="54.456181" lon="-3.143308">
        <ele>181</ele>
      </trkpt><trkpt lat="54.4562" lon="-3.143024">
        <ele>178.8</ele>
      </trkpt><trkpt lat="54.456249" lon="-3.142896">
        <ele>177.6</ele>
      </trkpt><trkpt lat="54.456263" lon="-3.142689">
        <ele>176.1</ele>
      </trkpt><trkpt lat="54.456251" lon="-3.14241">
        <ele>174.2</ele>
      </trkpt><trkpt lat="54.45618" lon="-3.142292">
        <ele>173.1</ele>
      </trkpt><trkpt lat="54.456121" lon="-3.14197">
        <ele>171.1</ele>
      </trkpt><trkpt lat="54.456259" lon="-3.141715">
        <ele>169.2</ele>
      </trkpt><trkpt lat="54.45625" lon="-3.141543">
        <ele>168.4</ele>
      </trkpt><trkpt lat="54.456303" lon="-3.141123">
        <ele>166.3</ele>
      </trkpt><trkpt lat="54.456374" lon="-3.140806">
        <ele>164.8</ele>
      </trkpt><trkpt lat="54.456391" lon="-3.140716">
        <ele>164.4</ele>
      </trkpt><trkpt lat="54.456391" lon="-3.140603">
        <ele>164</ele>
      </trkpt><trkpt lat="54.456266" lon="-3.140511">
        <ele>163.1</ele>
      </trkpt><trkpt lat="54.456222" lon="-3.140443">
        <ele>162.7</ele>
      </trkpt><trkpt lat="54.456103" lon="-3.140136">
        <ele>161.4</ele>
      </trkpt><trkpt lat="54.456034" lon="-3.139652">
        <ele>159.8</ele>
      </trkpt><trkpt lat="54.455987" lon="-3.139542">
        <ele>159.4</ele>
      </trkpt><trkpt lat="54.455794" lon="-3.139283">
        <ele>158</ele>
      </trkpt><trkpt lat="54.455357" lon="-3.138396">
        <ele>154.5</ele>
      </trkpt><trkpt lat="54.455201" lon="-3.138262">
        <ele>153.8</ele>
      </trkpt><trkpt lat="54.455117" lon="-3.138107">
        <ele>153.2</ele>
      </trkpt><trkpt lat="54.455026" lon="-3.137709">
        <ele>152.2</ele>
      </trkpt><trkpt lat="54.454801" lon="-3.13697">
        <ele>150.3</ele>
      </trkpt><trkpt lat="54.454663" lon="-3.136595">
        <ele>149.4</ele>
      </trkpt><trkpt lat="54.454515" lon="-3.136305">
        <ele>148.5</ele>
      </trkpt><trkpt lat="54.454115" lon="-3.135676">
        <ele>146.5</ele>
      </trkpt><trkpt lat="54.453975" lon="-3.135409">
        <ele>145.7</ele>
      </trkpt><trkpt lat="54.453708" lon="-3.135032">
        <ele>144.2</ele>
      </trkpt><trkpt lat="54.453495" lon="-3.134678">
        <ele>142.9</ele>
      </trkpt><trkpt lat="54.453449" lon="-3.134552">
        <ele>142.5</ele>
      </trkpt><trkpt lat="54.453301" lon="-3.134387">
        <ele>141.7</ele>
      </trkpt><trkpt lat="54.453233" lon="-3.134237">
        <ele>141.1</ele>
      </trkpt><trkpt lat="54.453118" lon="-3.134194">
        <ele>140.6</ele>
      </trkpt><trkpt lat="54.452781" lon="-3.133843">
        <ele>138.8</ele>
      </trkpt><trkpt lat="54.452515" lon="-3.133307">
        <ele>136.9</ele>
      </trkpt><trkpt lat="54.452331" lon="-3.133002">
        <ele>135.8</ele>
      </trkpt><trkpt lat="54.452118" lon="-3.132685">
        <ele>134.6</ele>
      </trkpt><trkpt lat="54.451787" lon="-3.132316">
        <ele>133.1</ele>
      </trkpt><trkpt lat="54.451562" lon="-3.131818">
        <ele>131.8</ele>
      </trkpt><trkpt lat="54.451421" lon="-3.13172">
        <ele>131.3</ele>
      </trkpt><trkpt lat="54.451325" lon="-3.131579">
        <ele>130.9</ele>
      </trkpt><trkpt lat="54.450905" lon="-3.1308">
        <ele>129</ele>
      </trkpt><trkpt lat="54.450709" lon="-3.130549">
        <ele>128.3</ele>
      </trkpt><trkpt lat="54.450419" lon="-3.130019">
        <ele>127.2</ele>
      </trkpt><trkpt lat="54.449977" lon="-3.129024">
        <ele>125.6</ele>
      </trkpt><trkpt lat="54.449397" lon="-3.127855">
        <ele>124.6</ele>
      </trkpt><trkpt lat="54.449222" lon="-3.127411">
        <ele>124.4</ele>
      </trkpt><trkpt lat="54.449084" lon="-3.127259">
        <ele>124.4</ele>
      </trkpt><trkpt lat="54.448974" lon="-3.127053">
        <ele>124.3</ele>
      </trkpt><trkpt lat="54.448761" lon="-3.126817">
        <ele>124.3</ele>
      </trkpt><trkpt lat="54.448476" lon="-3.126313">
        <ele>124.2</ele>
      </trkpt><trkpt lat="54.448488" lon="-3.126154">
        <ele>124.2</ele>
      </trkpt><trkpt lat="54.448465" lon="-3.125938">
        <ele>124.1</ele>
      </trkpt><trkpt lat="54.448221" lon="-3.125506">
        <ele>123.9</ele>
      </trkpt><trkpt lat="54.44814" lon="-3.125232">
        <ele>123.8</ele>
      </trkpt><trkpt lat="54.448107" lon="-3.124978">
        <ele>123.7</ele>
      </trkpt><trkpt lat="54.448029" lon="-3.12474">
        <ele>123.6</ele>
      </trkpt><trkpt lat="54.447896" lon="-3.124071">
        <ele>123.2</ele>
      </trkpt><trkpt lat="54.447735" lon="-3.123292">
        <ele>122.6</ele>
      </trkpt><trkpt lat="54.447607" lon="-3.12295">
        <ele>122.3</ele>
      </trkpt><trkpt lat="54.447525" lon="-3.122797">
        <ele>122.1</ele>
      </trkpt><trkpt lat="54.447461" lon="-3.122443">
        <ele>121.7</ele>
      </trkpt><trkpt lat="54.447342" lon="-3.122135">
        <ele>121.3</ele>
      </trkpt><trkpt lat="54.447075" lon="-3.121533">
        <ele>120.5</ele>
      </trkpt><trkpt lat="54.446784" lon="-3.121046">
        <ele>119.7</ele>
      </trkpt><trkpt lat="54.446651" lon="-3.120891">
        <ele>119.5</ele>
      </trkpt><trkpt lat="54.446504" lon="-3.120481">
        <ele>119</ele>
      </trkpt><trkpt lat="54.44639" lon="-3.120284">
        <ele>118.7</ele>
      </trkpt><trkpt lat="54.44618" lon="-3.119732">
        <ele>118.1</ele>
      </trkpt><trkpt lat="54.446113" lon="-3.119408">
        <ele>117.7</ele>
      </trkpt><trkpt lat="54.446008" lon="-3.118564">
        <ele>116.6</ele>
      </trkpt><trkpt lat="54.445431" lon="-3.117096">
        <ele>114.4</ele>
      </trkpt><trkpt lat="54.445442" lon="-3.116921">
        <ele>114.2</ele>
      </trkpt><trkpt lat="54.44542" lon="-3.116708">
        <ele>113.9</ele>
      </trkpt><trkpt lat="54.445493" lon="-3.116286">
        <ele>113.4</ele>
      </trkpt><trkpt lat="54.445493" lon="-3.116286">
        <ele>113.4</ele>
      </trkpt><trkpt lat="54.44546" lon="-3.115694">
        <ele>112.8</ele>
      </trkpt><trkpt lat="54.445391" lon="-3.115127">
        <ele>112.4</ele>
      </trkpt><trkpt lat="54.445349" lon="-3.113376">
        <ele>111.1</ele>
      </trkpt><trkpt lat="54.44531" lon="-3.11305">
        <ele>110.8</ele>
      </trkpt><trkpt lat="54.445275" lon="-3.112277">
        <ele>110.3</ele>
      </trkpt><trkpt lat="54.445282" lon="-3.112058">
        <ele>110.2</ele>
      </trkpt><trkpt lat="54.445189" lon="-3.111383">
        <ele>110</ele>
      </trkpt><trkpt lat="54.445226" lon="-3.110269">
        <ele>110</ele>
      </trkpt><trkpt lat="54.445273" lon="-3.109986">
        <ele>110</ele>
      </trkpt><trkpt lat="54.445349" lon="-3.109153">
        <ele>110</ele>
      </trkpt><trkpt lat="54.445352" lon="-3.108026">
        <ele>109.8</ele>
      </trkpt><trkpt lat="54.445364" lon="-3.107746">
        <ele>109.6</ele>
      </trkpt><trkpt lat="54.445425" lon="-3.107324">
        <ele>109.2</ele>
      </trkpt><trkpt lat="54.445416" lon="-3.106384">
        <ele>107.9</ele>
      </trkpt><trkpt lat="54.445464" lon="-3.105825">
        <ele>106.9</ele>
      </trkpt><trkpt lat="54.44544" lon="-3.105483">
        <ele>106.2</ele>
      </trkpt><trkpt lat="54.445498" lon="-3.104919">
        <ele>105</ele>
      </trkpt><trkpt lat="54.445486" lon="-3.104699">
        <ele>104.5</ele>
      </trkpt><trkpt lat="54.445509" lon="-3.104333">
        <ele>103.7</ele>
      </trkpt><trkpt lat="54.445518" lon="-3.103829">
        <ele>102.7</ele>
      </trkpt><trkpt lat="54.445547" lon="-3.103694">
        <ele>102.5</ele>
      </trkpt><trkpt lat="54.445571" lon="-3.103573">
        <ele>102.3</ele>
      </trkpt><trkpt lat="54.445532" lon="-3.102989">
        <ele>101.5</ele>
      </trkpt><trkpt lat="54.445538" lon="-3.102863">
        <ele>101.3</ele>
      </trkpt>
    </trkseg>
  </trk>
</gpx>